id,created_at,updated_at,street_id,city_id,street_kladr,street_type_id,street_type_full,street_type_short,name
485,2020-09-03T10:26:20.338Z,2022-11-15T12:48:28.642847Z,67,1,200000000067,13,микрорайон,мкр.,10-й микрорайон
1046,2020-09-03T10:26:20.446Z,2022-11-15T12:48:28.809645Z,309,1,200000000309,13,микрорайон,мкр.,11-й микрорайон
483,2020-09-03T10:26:20.338Z,2022-11-15T12:48:28.863923Z,65,1,200000000065,13,микрорайон,мкр.,12-й микрорайон
2416,2024-10-22T05:50:25.006590Z,2024-10-22T05:50:25.006120Z,50445,1,200000050445,13,микрорайон,мкр.,20-й микрорайон
1171,2020-09-03T10:26:20.446Z,2020-09-03T10:26:20.446Z,515,1,200000000515,6,улица,ул.,20 Линия
945,2020-09-03T10:26:20.409Z,2020-09-03T10:26:20.409Z,259,1,200000000259,6,улица,ул.,24 Июня
1075,2020-09-03T10:26:20.446Z,2022-11-15T12:48:28.953651Z,341,1,200000000341,13,микрорайон,мкр.,2-й микрорайон
477,2020-09-03T10:26:20.338Z,2022-11-15T12:48:30.014188Z,57,1,200000000057,13,микрорайон,мкр.,3-й микрорайон
480,2020-09-03T10:26:20.338Z,2022-11-15T12:48:30.127867Z,61,1,200000000061,13,микрорайон,мкр.,4-й микрорайон
1472,2020-09-03T10:26:20.482Z,2022-11-15T12:50:52.976023Z,1232,1,200000001232,13,микрорайон,мкр.,5-й микрорайон
481,2020-09-03T10:26:20.338Z,2022-11-15T12:48:31.272572Z,62,1,200000000062,13,микрорайон,мкр.,6-й микрорайон
934,2020-09-03T10:26:20.409Z,2020-09-03T10:26:20.409Z,247,1,200000000247,6,улица,ул.,6 Линия
1051,2020-09-03T10:26:20.446Z,2022-11-15T12:48:31.358028Z,315,1,200000000315,13,микрорайон,мкр.,8-й микрорайон
1180,2020-09-03T10:26:20.446Z,2020-09-03T10:26:20.446Z,525,1,200000000525,6,улица,ул.,8 Линия
484,2020-09-03T10:26:20.338Z,2022-11-15T12:48:31.552561Z,66,1,200000000066,13,микрорайон,мкр.,9-й микрорайон
281,2020-09-03T10:26:20.338Z,2020-09-03T10:26:20.338Z,7222,1,200000007222,6,улица,ул.,LTE4FIX
1522,2020-09-03T10:26:20.482Z,2020-09-03T10:26:20.482Z,632,1,200000000632,6,улица,ул.,TSTTS
119,2020-09-03T10:26:20.302Z,2020-09-03T10:26:20.302Z,5811,1,200000005811,6,улица,ул.,TSTTSWIFI
1922,2022-11-15T12:51:24.681072Z,2022-11-15T12:51:24.680726Z,9566,1,200000009566,13,микрорайон,мкр.,"Абай, ул. Алтын Орда"
918,2020-09-03T10:26:20.409Z,2020-09-03T10:26:20.409Z,231,1,200000000231,8,проспект,просп.,Абая
1028,2020-09-03T10:26:20.446Z,2020-09-03T10:26:20.446Z,290,1,200000000290,6,улица,ул.,Абдуллиных
412,2020-09-03T10:26:20.338Z,2020-09-03T10:26:20.338Z,8244,1,200000008244,6,улица,ул.,Абиша Кекилбайулы
389,2020-09-03T10:26:20.338Z,2020-09-03T10:26:20.338Z,7863,1,200000007863,6,улица,ул.,Абишева
923,2020-09-03T10:26:20.409Z,2020-09-03T10:26:20.409Z,236,1,200000000236,8,проспект,просп.,Абылай Хана
898,2020-09-03T10:26:20.409Z,2022-11-15T12:48:19.505788Z,210,1,200000000210,6,улица,ул.,Айманова
987,2020-09-03T10:26:20.409Z,2020-09-03T10:26:20.409Z,402,1,200000000402,13,микрорайон,мкр.,Айнабулак 1
988,2020-09-03T10:26:20.409Z,2020-09-03T10:26:20.409Z,403,1,200000000403,13,микрорайон,мкр.,Айнабулак 2
989,2020-09-03T10:26:20.409Z,2020-09-03T10:26:20.409Z,404,1,200000000404,13,микрорайон,мкр.,Айнабулак 3
990,2020-09-03T10:26:20.409Z,2020-09-03T10:26:20.409Z,405,1,200000000405,13,микрорайон,мкр.,Айнабулак 4
449,2020-09-03T10:26:20.338Z,2020-09-03T10:26:20.338Z,1,1,200000000001,6,улица,ул.,Айтеке би
922,2020-09-03T10:26:20.409Z,2020-09-03T10:26:20.409Z,235,1,200000000235,6,улица,ул.,Айтиева
753,2020-09-03T10:26:20.374Z,2020-09-03T10:26:20.374Z,666,1,200000000666,6,улица,ул.,Акан Серы
174,2020-09-03T10:26:20.302Z,2020-09-03T10:26:20.302Z,5922,1,200000005922,13,микрорайон,мкр.,Акбулак
2685,2024-11-08T05:02:05.055489Z,2024-11-08T05:02:05.055314Z,50714,1,200000050714,13,микрорайон,мкр.,"Акбулак, ул.Аханова"
2701,2024-11-08T05:06:42.988232Z,2024-11-08T05:06:42.987959Z,50730,1,200000050730,13,микрорайон,мкр.,"Акбулак, ул. Байконырова"
2683,2024-11-08T05:02:03.404351Z,2024-11-08T05:02:03.403536Z,50712,1,200000050712,13,микрорайон,мкр.,"Акбулак, ул. Бичурина"
2703,2024-11-08T05:09:20.892146Z,2024-11-08T05:09:20.891854Z,50732,1,200000050732,13,микрорайон,мкр.,"Акбулак, ул. Даулетгалиева"
2687,2024-11-08T05:02:08.317876Z,2024-11-08T05:02:08.317588Z,50716,1,200000050716,13,микрорайон,мкр.,"Акбулак, ул.Егиндыбулак"
2693,2024-11-08T05:03:41.698574Z,2024-11-08T05:03:41.698316Z,50722,1,200000050722,13,микрорайон,мкр.,"Акбулак, ул. Еспаева"
2684,2024-11-08T05:02:03.753291Z,2024-11-08T05:02:03.752869Z,50713,1,200000050713,13,микрорайон,мкр.,"Акбулак, ул. Жандилдина"
2692,2024-11-08T05:03:35.331088Z,2024-11-08T05:03:35.330812Z,50721,1,200000050721,13,микрорайон,мкр.,"Акбулак, ул. Карсакбаева"
2690,2024-11-08T05:02:09.899663Z,2024-11-08T05:02:09.899366Z,50719,1,200000050719,13,микрорайон,мкр.,"Акбулак, ул. Мамутова"
2697,2024-11-08T05:06:15.710361Z,2024-11-08T05:06:15.709732Z,50726,1,200000050726,13,микрорайон,мкр.,"Акбулак, ул. Мукаева"
2686,2024-11-08T05:02:07.388422Z,2024-11-08T05:02:07.387950Z,50715,1,200000050715,13,микрорайон,мкр.,"Акбулак, ул.Нурмаханова"
2702,2024-11-08T05:09:19.813560Z,2024-11-08T05:09:19.813285Z,50731,1,200000050731,13,микрорайон,мкр.,"Акбулак, ул. Отейбойдака"
2698,2024-11-08T05:06:42.256585Z,2024-11-08T05:06:42.252314Z,50727,1,200000050727,13,микрорайон,мкр.,"Акбулак, ул. Рустемова"
2695,2024-11-08T05:04:54.861101Z,2024-11-08T05:04:54.860839Z,50724,1,200000050724,13,микрорайон,мкр.,"Акбулак, ул. Самади"
2694,2024-11-08T05:04:54.767685Z,2024-11-08T05:04:54.767373Z,50723,1,200000050723,13,микрорайон,мкр.,"Акбулак, ул. Сарытогай"
2689,2024-11-08T05:02:09.769992Z,2024-11-08T05:02:09.769721Z,50718,1,200000050718,13,микрорайон,мкр.,"Акбулак, ул.Сейдоллы Байтерекова"
2691,2024-11-08T05:02:09.996679Z,2024-11-08T05:02:09.996398Z,50720,1,200000050720,13,микрорайон,мкр.,"Акбулак, ул.Сергазина"
2103,2024-03-28T06:07:56.616130Z,2024-03-28T06:07:56.615703Z,50136,1,200000050136,13,микрорайон,мкр.,"Акбулак, ул. Суатколь"
2696,2024-11-08T05:05:26.402702Z,2024-11-08T05:05:26.402226Z,50725,1,200000050725,13,микрорайон,мкр.,"Акбулак, ул. Сулейменова"
2700,2024-11-08T05:06:42.903257Z,2024-11-08T05:06:42.902940Z,50729,1,200000050729,13,микрорайон,мкр.,"Акбулак, ул. Томанова"
2688,2024-11-08T05:02:09.370850Z,2024-11-08T05:02:09.370444Z,50717,1,200000050717,13,микрорайон,мкр.,"Акбулак, ул.Туякберди Шамелова"
2699,2024-11-08T05:06:42.410329Z,2024-11-08T05:06:42.410121Z,50728,1,200000050728,13,микрорайон,мкр.,"Акбулак, ул. Шарипканова"
175,2020-09-03T10:26:20.302Z,2020-09-03T10:26:20.302Z,5923,1,200000005923,13,микрорайон,мкр.,Аккент
453,2020-09-03T10:26:20.338Z,2020-09-03T10:26:20.338Z,26,1,200000000026,13,микрорайон,мкр.,Аксай 1
497,2020-09-03T10:26:20.338Z,2020-09-03T10:26:20.338Z,74,1,200000000074,13,микрорайон,мкр.,Аксай 1а
454,2020-09-03T10:26:20.338Z,2020-09-03T10:26:20.338Z,27,1,200000000027,13,микрорайон,мкр.,Аксай 2
488,2020-09-03T10:26:20.338Z,2020-09-03T10:26:20.338Z,75,1,200000000075,13,микрорайон,мкр.,Аксай 3
489,2020-09-03T10:26:20.338Z,2020-09-03T10:26:20.338Z,76,1,200000000076,13,микрорайон,мкр.,Аксай 3а
490,2020-09-03T10:26:20.338Z,2020-09-03T10:26:20.338Z,77,1,200000000077,13,микрорайон,мкр.,Аксай 3б
3281,2024-12-30T15:11:19.276447Z,2024-12-30T15:11:19.276259Z,51310,1,200000051310,13,микрорайон,мкр.,"Аксай-3Б, ул. Сейхун"
3282,2024-12-30T15:13:30.784447Z,2024-12-30T15:13:30.784248Z,51311,1,200000051311,13,микрорайон,мкр.,"Аксай-3Б, ул. Ташкентская"
447,2020-09-03T10:26:20.338Z,2022-11-19T19:15:24.636652Z,20,1,200000000020,13,микрорайон,мкр.,Аксай 4
478,2020-09-03T10:26:20.338Z,2020-09-03T10:26:20.338Z,58,1,200000000058,13,микрорайон,мкр.,Аксай 5
3946,2025-03-31T10:58:53.973439Z,2025-03-31T10:58:53.973238Z,51976,1,200000051976,6,улица,ул.,Акселеу Сейдимбека
339,2020-09-03T10:26:20.338Z,2020-09-03T10:26:20.338Z,7401,1,200000007401,13,микрорайон,мкр.,Актобе
213,2020-09-03T10:26:20.302Z,2025-03-17T06:57:47.384765Z,6221,1,200000006221,13,микрорайон,мкр.,"Актобе, улица Алма"
754,2020-09-03T10:26:20.374Z,2020-09-03T10:26:20.374Z,668,1,200000000668,6,улица,ул.,Акынов
2031,2023-06-30T12:10:12.091173Z,2023-06-30T12:10:12.090958Z,50064,1,200000050064,6,улица,ул.,Алатау (мкр Нуршашкан)
2118,2024-05-24T11:14:26.432761Z,2024-05-24T11:14:26.432497Z,50151,1,200000050151,13,микрорайон,мкр.,"Алгабас, 7-я улица"
3503,2025-01-31T10:35:08.008051Z,2025-01-31T10:35:08.007794Z,51532,1,200000051532,6,улица,ул.,Алиби Жангельдина
1033,2020-09-03T10:26:20.446Z,2020-09-03T10:26:20.446Z,295,1,200000000295,6,улица,ул.,Алимжанова
1156,2020-09-03T10:26:20.446Z,2020-09-03T10:26:20.446Z,493,1,200000000493,13,микрорайон,мкр.,Алмагуль
755,2020-09-03T10:26:20.374Z,2020-09-03T10:26:20.374Z,669,1,200000000669,6,улица,ул.,Алматинская (Казахфильм)
329,2020-09-03T10:26:20.338Z,2020-09-03T10:26:20.338Z,7041,1,200000007041,60,трасса,трасса,Алматы Бишкек
1271,2020-09-03T10:26:20.446Z,2020-09-03T10:26:20.446Z,1005,1,200000001005,13,микрорайон,мкр.,Алтай 1
1272,2020-09-03T10:26:20.446Z,2020-09-03T10:26:20.446Z,1006,1,200000001006,13,микрорайон,мкр.,Алтай 2
3283,2024-12-30T15:18:10.272801Z,2024-12-30T15:18:10.272545Z,51312,1,200000051312,13,микрорайон,мкр.,Алтын Бесик
3284,2024-12-30T15:20:41.504223Z,2024-12-30T15:20:41.503987Z,51313,1,200000051313,13,микрорайон,мкр.,"Алтын Бесик, пер. Каргалинский"
3291,2024-12-30T15:45:03.797016Z,2024-12-30T15:45:03.796721Z,51320,1,200000051320,13,микрорайон,мкр.,"Алтын Бесик, ул. Анет Баба"
3292,2024-12-30T15:57:22.971414Z,2024-12-30T15:57:22.971048Z,51321,1,200000051321,13,микрорайон,мкр.,"Алтын Бесик, ул. Жексенбаева"
3296,2024-12-30T15:59:57.156584Z,2024-12-30T15:59:57.156333Z,51325,1,200000051325,13,микрорайон,мкр.,"Алтын Бесик, ул. Райымбека"
3295,2024-12-30T15:59:55.491582Z,2024-12-30T15:59:55.491385Z,51324,1,200000051324,13,микрорайон,мкр.,"Алтын Бесик, ул. Ташкентская"
3293,2024-12-30T15:59:53.559082Z,2024-12-30T15:59:53.558849Z,51322,1,200000051322,13,микрорайон,мкр.,"Алтын Бесик, ул. Токпанова"
3294,2024-12-30T15:59:55.146839Z,2024-12-30T15:59:55.146666Z,51323,1,200000051323,13,микрорайон,мкр.,"Алтын Бесик, ул. Трудовая"
3297,2024-12-30T16:03:49.277058Z,2024-12-30T16:03:49.276717Z,51326,1,200000051326,13,микрорайон,мкр.,"Алтын Бесик, ул. Шанина"
476,2020-09-03T10:26:20.338Z,2020-09-03T10:26:20.338Z,56,1,200000000056,8,проспект,просп.,Алтынсарина
940,2020-09-03T10:26:20.409Z,2020-09-03T10:26:20.409Z,254,1,200000000254,8,проспект,просп.,Аль-Фараби
953,2020-09-03T10:26:20.409Z,2020-09-03T10:26:20.409Z,268,1,200000000268,6,улица,ул.,Амангельды
950,2020-09-03T10:26:20.409Z,2020-09-03T10:26:20.409Z,265,1,200000000265,6,улица,ул.,Аносова
1886,2022-11-15T12:51:15.053904Z,2022-11-15T12:51:15.053499Z,8886,1,200000008886,6,улица,ул.,Арайлы
3609,2025-03-20T05:22:45.241206Z,2025-03-20T05:22:45.241018Z,51638,1,200000051638,6,улица,ул.,Аральская
1871,2022-11-15T12:51:13.224244Z,2022-11-15T12:51:13.223835Z,8786,1,200000008786,6,улица,ул.,Аркалык
2750,2024-11-27T09:11:01.282021Z,2024-11-27T09:11:01.281764Z,50779,1,200000050779,13,микрорайон,мкр.,"Архат, ул. 5-я улица"
2752,2024-11-27T09:11:01.487795Z,2024-11-27T09:11:01.487058Z,50781,1,200000050781,13,микрорайон,мкр.,"Архат, ул. Алатау"
2768,2024-11-27T10:47:34.255725Z,2024-11-27T10:47:34.255453Z,50797,1,200000050797,13,микрорайон,мкр.,"Архат, ул. Архат"
2753,2024-11-27T09:11:01.582793Z,2024-11-27T09:11:01.582404Z,50782,1,200000050782,13,микрорайон,мкр.,"Архат, ул. Квартал А"
2769,2024-11-27T10:47:35.468211Z,2024-11-27T10:47:35.466962Z,50798,1,200000050798,13,микрорайон,мкр.,"Архат, ул. Квартал А1"
2749,2024-11-27T09:10:59.715286Z,2024-11-27T09:10:59.715097Z,50778,1,200000050778,13,микрорайон,мкр.,"Архат, ул. Квартал Б"
2751,2024-11-27T09:11:01.385474Z,2024-11-27T09:11:01.385243Z,50780,1,200000050780,13,микрорайон,мкр.,"Архат, ул. Квартал В"
2803,2024-11-27T14:26:15.265718Z,2024-11-27T14:26:15.265490Z,50832,1,200000050832,13,микрорайон,мкр.,"Архат, ул. Квартал Д"
2804,2024-11-27T14:26:15.356284Z,2024-11-27T14:26:15.355945Z,50833,1,200000050833,13,микрорайон,мкр.,"Архат, ул. Квартал Д1"
2767,2024-11-27T10:47:33.430154Z,2024-11-27T10:47:33.429963Z,50796,1,200000050796,13,микрорайон,мкр.,"Архат, ул. Квартал С"
2754,2024-11-27T09:11:02.484134Z,2024-11-27T09:11:02.483871Z,50783,1,200000050783,13,микрорайон,мкр.,"Архат, ул. Природа"
2766,2024-11-27T10:47:32.995520Z,2024-11-27T10:47:32.995200Z,50795,1,200000050795,13,микрорайон,мкр.,"Архат, ул. Тарлан"
246,2020-09-03T10:26:20.302Z,2020-09-03T10:26:20.302Z,6741,1,200000006741,63,коттеджный городок,КГ,Асем тау
1799,2022-11-15T12:50:49.853977Z,2022-11-15T12:50:49.853638Z,8906,1,200000008906,6,улица,ул.,Аскарова
1800,2022-11-15T12:50:49.907757Z,2022-11-15T12:50:49.907365Z,10626,1,200000010626,13,микрорайон,мкр.,Астана
328,2020-09-03T10:26:20.338Z,2020-09-03T10:26:20.338Z,7021,1,200000007021,64,жилой массив,жм,Асыл Арман
1801,2022-11-15T12:50:50.010318Z,2022-11-15T12:50:50.008765Z,10647,1,200000010647,13,микрорайон,мкр.,Атырау
899,2020-09-03T10:26:20.409Z,2020-09-03T10:26:20.409Z,211,1,200000000211,6,улица,ул.,Ауэзова
388,2020-09-03T10:26:20.338Z,2020-09-03T10:26:20.338Z,7843,1,200000007843,6,улица,ул.,Афцинао
1262,2020-09-03T10:26:20.446Z,2020-09-03T10:26:20.446Z,996,1,200000000996,6,улица,ул.,Бабаева
2479,2024-10-22T08:42:26.023224Z,2024-10-22T08:42:26.022983Z,50514,1,200000050514,13,микрорайон,мкр.,"Баганашил, ул.3-я Алма"
2470,2024-10-22T07:39:13.738945Z,2024-10-22T07:39:13.738702Z,50507,1,200000050507,13,микрорайон,мкр.,"Баганашыл, Квартал В"
2469,2024-10-22T07:39:09.527038Z,2024-10-22T07:39:09.526743Z,50506,1,200000050506,13,микрорайон,мкр.,"Баганашыл, пер.Алмалы"
2468,2024-10-22T07:39:08.662056Z,2024-10-22T07:39:08.661798Z,50505,1,200000050505,13,микрорайон,мкр.,"Баганашыл, СТ Алатау-2"
2471,2024-10-22T07:39:14.209730Z,2024-10-22T07:39:14.209063Z,50508,1,200000050508,13,микрорайон,мкр.,"Баганашыл, СТ Алма-3"
2443,2024-10-22T07:18:22.247988Z,2024-10-22T07:18:22.247588Z,50473,1,200000050473,13,микрорайон,мкр.,"Баганашыл, СТ Мамыр"
2420,2024-10-22T07:17:26.533567Z,2024-10-22T07:17:26.533291Z,50449,1,200000050449,13,микрорайон,мкр.,"Баганашыл, ул. 2-я Зеленая"
2419,2024-10-22T07:17:25.697608Z,2024-10-22T07:17:25.697276Z,50448,1,200000050448,13,микрорайон,мкр.,"Баганашыл, ул. 2-я Строительная"
2480,2024-10-22T08:42:28.048662Z,2024-10-22T08:42:28.048405Z,50515,1,200000050515,13,микрорайон,мкр.,"Баганашыл, ул. Алатау"
2452,2024-10-22T07:32:48.326331Z,2024-10-22T07:32:48.325488Z,50485,1,200000050485,13,микрорайон,мкр.,"Баганашыл, ул.Алмалы"
2478,2024-10-22T08:41:56.266917Z,2024-10-22T08:41:56.266696Z,50513,1,200000050513,13,микрорайон,мкр.,"Баганашыл, ул. Байшешек"
2418,2024-10-22T07:17:15.359991Z,2024-10-22T07:17:15.359662Z,50447,1,200000050447,13,микрорайон,мкр.,"Баганашыл, ул. Водопроводная"
2466,2024-10-22T07:38:51.006641Z,2024-10-22T07:38:51.006110Z,50503,1,200000050503,13,микрорайон,мкр.,"Баганашыл, ул. Восточная"
2450,2024-10-22T07:22:26.890478Z,2024-10-22T07:22:26.890189Z,50482,1,200000050482,13,микрорайон,мкр.,"Баганашыл, ул. Грушовая"
2442,2024-10-22T07:18:22.158499Z,2024-10-22T07:18:22.158288Z,50472,1,200000050472,13,микрорайон,мкр.,"Баганашыл, ул. Мамыр"
2467,2024-10-22T07:39:04.057272Z,2024-10-22T07:39:04.056972Z,50504,1,200000050504,13,микрорайон,мкр.,"Баганашыл, ул.Молодежная"
2451,2024-10-22T07:22:27.072431Z,2024-10-22T07:22:27.072195Z,50483,1,200000050483,13,микрорайон,мкр.,"Баганашыл, ул. Подгорная"
2481,2024-10-22T08:42:28.210173Z,2024-10-22T08:42:28.209957Z,50516,1,200000050516,13,микрорайон,мкр.,"Баганашыл, ул. Санаторная"
2421,2024-10-22T07:17:27.155630Z,2024-10-22T07:17:27.155421Z,50450,1,200000050450,13,микрорайон,мкр.,"Баганашыл, ул. Сыргабекова"
2461,2024-10-22T07:34:57.959804Z,2024-10-22T07:34:57.959206Z,50497,1,200000050497,13,микрорайон,мкр.,"Баганашыл, ул. Тан"
1802,2022-11-15T12:50:51.108954Z,2022-11-15T12:50:51.108394Z,9986,1,200000009986,6,улица,ул.,Баишева
917,2020-09-03T10:26:20.409Z,2020-09-03T10:26:20.409Z,230,1,200000000230,6,улица,ул.,Байганина
901,2020-09-03T10:26:20.409Z,2020-09-03T10:26:20.409Z,213,1,200000000213,6,улица,ул.,Байзакова
1172,2020-09-03T10:26:20.446Z,2020-09-03T10:26:20.446Z,517,1,200000000517,6,улица,ул.,Байкадамова
3489,2025-01-31T10:30:57.177484Z,2025-01-31T10:30:57.177319Z,51518,1,200000051518,6,улица,ул.,Байсеит батыра
926,2020-09-03T10:26:20.409Z,2022-11-15T12:48:20.571673Z,239,1,200000000239,6,улица,ул.,Байсеитовой
382,2020-09-03T10:26:20.338Z,2020-09-03T10:26:20.338Z,7723,1,200000007723,6,улица,ул.,Байтасова
1966,2022-11-15T14:13:53.942374Z,2022-11-15T14:13:53.941813Z,10806,1,200000010806,6,улица,ул.,Байтерекова
429,2020-09-03T10:26:20.338Z,2020-09-03T10:26:20.338Z,2,1,200000000002,6,улица,ул.,Байтурсынова
1053,2020-09-03T10:26:20.446Z,2020-09-03T10:26:20.446Z,317,1,200000000317,6,улица,ул.,Бальзака
1026,2020-09-03T10:26:20.446Z,2020-09-03T10:26:20.446Z,288,1,200000000288,6,улица,ул.,Барибаева
2172,2024-07-24T11:46:34.089993Z,2024-07-24T11:46:34.089787Z,50205,1,200000050205,6,улица,ул.,Басаркабыз
1263,2020-09-03T10:26:20.446Z,2020-09-03T10:26:20.446Z,997,1,200000000997,6,улица,ул.,Басенова
3298,2024-12-30T16:06:38.910298Z,2024-12-30T16:06:38.910086Z,51327,1,200000051327,13,микрорайон,мкр.,Баянаул
1803,2022-11-15T12:50:51.171006Z,2022-11-15T12:50:51.170579Z,8686,1,200000008686,6,улица,ул.,Бегалина
378,2020-09-03T10:26:20.338Z,2020-09-03T10:26:20.338Z,7663,1,200000007663,6,улица,ул.,Бекхожина Калижана
1359,2020-09-03T10:26:20.482Z,2020-09-03T10:26:20.482Z,1105,1,200000001105,6,улица,ул.,Белградская
3494,2025-01-31T10:33:35.309059Z,2025-01-31T10:33:35.308467Z,51523,1,200000051523,6,улица,ул.,Белякова
3490,2025-01-31T10:30:59.102021Z,2025-01-31T10:30:59.101785Z,51519,1,200000051519,6,улица,ул.,Беркаира Аманшина
2009,2023-04-27T09:52:50.435947Z,2023-04-27T09:52:50.435524Z,50042,1,200000050042,65,район,район,"Бесагаш, ул. Аймауытова"
2158,2024-07-10T06:21:56.927712Z,2024-07-10T06:21:56.927547Z,50191,1,200000050191,65,район,район,"Бесагаш, ул. Аэропортная "
1790,2022-11-08T00:25:42.184390Z,2022-11-08T00:25:42.183975Z,50004,1,200000050004,65,район,район,"Бесагаш, ул. Кошкарбаева"
1972,2022-11-08T00:25:42.184390Z,2022-11-08T00:25:42.183975Z,10927,1,200000010927,65,район,район,"Бесагаш, ул. Кошкарбаева"
1974,2022-11-30T03:18:40.654890Z,2022-11-30T03:18:40.653838Z,50007,1,200000050007,65,район,район,"Бесагаш, ул. Райымбек батыра"
2006,2023-04-18T06:14:07.160724Z,2023-04-18T06:14:07.160338Z,50039,1,200000050039,65,район,район,"Бесагаш, ул. Сырым Батыр"
3487,2025-01-31T10:29:37.927367Z,2025-01-31T10:29:37.927163Z,51516,1,200000051516,6,улица,ул.,Билге Каган
430,2020-09-03T10:26:20.338Z,2020-09-03T10:26:20.338Z,3,1,200000000003,6,улица,ул.,Богенбай батыра
1804,2022-11-15T12:50:51.331892Z,2022-11-15T12:50:51.331519Z,8465,1,200000008465,6,улица,ул.,Бокеева Оралхана
1805,2022-11-15T12:50:51.447901Z,2022-11-15T12:50:51.447206Z,10306,1,200000010306,6,улица,ул.,Бокейханова Алихана
1525,2020-09-03T10:26:20.482Z,2020-09-03T10:26:20.482Z,1128,1,200000001128,61,поселок,поселок,"Боролдай, улица TSTTS"
125,2020-09-03T10:26:20.302Z,2020-09-03T10:26:20.302Z,5817,1,200000005817,61,поселок,поселок,"Боролдай, улица TSTTSWIFI"
1992,2023-03-09T05:13:19.444865Z,2023-03-09T05:13:19.444567Z,50025,1,200000050025,6,улица,ул.,Боткина
947,2020-09-03T10:26:20.409Z,2022-11-15T12:48:20.634195Z,261,1,200000000261,6,улица,ул.,Брусиловского
1027,2020-09-03T10:26:20.446Z,2020-09-03T10:26:20.446Z,289,1,200000000289,6,улица,ул.,Бузурбаева
956,2020-09-03T10:26:20.409Z,2020-09-03T10:26:20.409Z,271,1,200000000271,3,бульвар,бульв.,Бухар Жырау
1039,2020-09-03T10:26:20.446Z,2022-11-15T12:48:20.701449Z,301,1,200000000301,6,улица,ул.,Валиханова
1806,2022-11-15T12:50:51.489103Z,2022-11-15T12:50:51.488719Z,8666,1,200000008666,6,улица,ул.,Варламова
1440,2020-09-03T10:26:20.482Z,2020-09-03T10:26:20.482Z,1199,1,200000001199,6,улица,ул.,Вахтангова
3488,2025-01-31T10:30:01.555154Z,2025-01-31T10:30:01.554861Z,51517,1,200000051517,6,улица,ул.,Веселова
463,2020-09-03T10:26:20.338Z,2020-09-03T10:26:20.338Z,38,1,200000000038,6,улица,ул.,Вишневского 2-ая
993,2020-09-03T10:26:20.409Z,2020-09-03T10:26:20.409Z,408,1,200000000408,6,улица,ул.,Володарского
943,2020-09-03T10:26:20.409Z,2020-09-03T10:26:20.409Z,257,1,200000000257,6,улица,ул.,Габдуллина
902,2020-09-03T10:26:20.409Z,2020-09-03T10:26:20.409Z,214,1,200000000214,8,проспект,просп.,Гагарина
756,2020-09-03T10:26:20.374Z,2020-09-03T10:26:20.374Z,673,1,200000000673,6,улица,ул.,Геологов
3614,2025-03-20T05:24:16.412331Z,2025-03-20T05:24:16.412092Z,51643,1,200000051643,7,переулок,пер.,Герцена
3502,2025-01-31T10:35:05.006600Z,2025-01-31T10:35:05.006367Z,51531,1,200000051531,6,улица,ул.,Герцена
431,2020-09-03T10:26:20.338Z,2020-09-03T10:26:20.338Z,4,1,200000000004,6,улица,ул.,Гоголя
216,2020-09-03T10:26:20.302Z,2020-09-03T10:26:20.302Z,6281,1,200000006281,6,улица,ул.,Горная долина
247,2020-09-03T10:26:20.302Z,2020-09-03T10:26:20.302Z,6742,1,200000006742,6,улица,ул.,Грановского
3501,2025-01-31T10:34:38.694238Z,2025-01-31T10:34:38.693880Z,51530,1,200000051530,6,улица,ул.,Григория Потанина
3492,2025-01-31T10:33:33.965026Z,2025-01-31T10:33:33.964816Z,51521,1,200000051521,6,улица,ул.,Громова
3305,2024-12-30T16:52:54.445669Z,2024-12-30T16:52:54.445375Z,51334,1,200000051334,6,улица,ул.,Дала
332,2020-09-03T10:26:20.338Z,2022-11-15T12:51:07.846595Z,7281,1,200000007281,13,микрорайон,мкр.,Дарабоз
420,2020-09-03T10:26:20.338Z,2020-09-03T10:26:20.338Z,8344,1,200000008344,6,улица,ул.,Джетысуйская
906,2020-09-03T10:26:20.409Z,2020-09-03T10:26:20.409Z,218,1,200000000218,6,улица,ул.,Джумалиева
432,2020-09-03T10:26:20.338Z,2020-09-03T10:26:20.338Z,5,1,200000000005,6,улица,ул.,Досмухамедова
924,2020-09-03T10:26:20.409Z,2020-09-03T10:26:20.409Z,237,1,200000000237,8,проспект,просп.,Достык
3285,2024-12-30T15:22:51.340851Z,2024-12-30T15:22:51.339610Z,51314,1,200000051314,13,микрорайон,мкр.,"Достык, ул. Аймуйсин"
3368,2025-01-24T11:53:13.297652Z,2025-01-24T11:53:13.297404Z,51397,1,200000051397,13,микрорайон,мкр.,"Достык, ул. Акбакай"
3369,2025-01-24T12:10:50.063259Z,2025-01-24T12:10:50.062999Z,51398,1,200000051398,13,микрорайон,мкр.,"Достык, ул. Акжайнак"
3370,2025-01-24T12:16:09.045549Z,2025-01-24T12:16:09.045271Z,51399,1,200000051399,13,микрорайон,мкр.,"Достык, ул. Акжунис"
3379,2025-01-24T15:22:46.702706Z,2025-01-24T15:22:46.702455Z,51408,1,200000051408,13,микрорайон,мкр.,"Достык, ул. Аккогершин"
3371,2025-01-24T12:56:09.697403Z,2025-01-24T12:56:09.697194Z,51400,1,200000051400,13,микрорайон,мкр.,"Достык, ул. Баршынкент"
286,2020-09-03T10:26:20.338Z,2024-11-11T06:07:28.134557Z,7261,1,200000007261,13,микрорайон,мкр.,"Достык, ул. Гожахмета Садвакасова"
3372,2025-01-24T13:11:44.045907Z,2025-01-24T13:11:44.045382Z,51401,1,200000051401,13,микрорайон,мкр.,"Достык, ул. Дастан"
3314,2024-12-30T17:16:06.044032Z,2024-12-30T17:16:06.043812Z,51343,1,200000051343,13,микрорайон,мкр.,"Достык, ул. Жайдарман"
3373,2025-01-24T14:13:34.710564Z,2025-01-24T14:13:34.710314Z,51402,1,200000051402,13,микрорайон,мкр.,"Достык, ул. Жеты Жаргы"
3380,2025-01-24T15:27:47.491854Z,2025-01-24T15:27:47.491503Z,51409,1,200000051409,13,микрорайон,мкр.,"Достык, ул. Карахан"
3286,2024-12-30T15:27:26.593214Z,2024-12-30T15:27:26.592916Z,51315,1,200000051315,13,микрорайон,мкр.,"Достык, ул. Каргалинская"
3381,2025-01-24T15:31:01.961628Z,2025-01-24T15:31:01.961405Z,51410,1,200000051410,13,микрорайон,мкр.,"Достык, ул. Кеменгер"
3382,2025-01-24T15:39:51.626896Z,2025-01-24T15:39:51.626631Z,51411,1,200000051411,13,микрорайон,мкр.,"Достык, ул. Манат"
3374,2025-01-24T14:35:51.681396Z,2025-01-24T14:35:51.681068Z,51403,1,200000051403,13,микрорайон,мкр.,"Достык, ул. Науметова"
3375,2025-01-24T14:39:25.092582Z,2025-01-24T14:39:25.092230Z,51404,1,200000051404,13,микрорайон,мкр.,"Достык, ул. Поль Гурдэ"
3287,2024-12-30T15:29:33.186938Z,2024-12-30T15:29:33.186719Z,51316,1,200000051316,13,микрорайон,мкр.,"Достык, ул. Серегина"
3315,2024-12-30T17:18:34.128720Z,2024-12-30T17:18:34.128549Z,51344,1,200000051344,13,микрорайон,мкр.,"Достык, ул. Сыйластык"
3376,2025-01-24T14:43:00.126004Z,2025-01-24T14:43:00.125653Z,51405,1,200000051405,13,микрорайон,мкр.,"Достык, ул. Тагзым"
3288,2024-12-30T15:32:21.425562Z,2024-12-30T15:32:21.425240Z,51317,1,200000051317,13,микрорайон,мкр.,"Достык, ул. Тауке Хана"
3289,2024-12-30T15:34:49.096638Z,2024-12-30T15:34:49.096398Z,51318,1,200000051318,13,микрорайон,мкр.,"Достык, ул. Трудовая"
3383,2025-01-24T15:59:43.345165Z,2025-01-24T15:59:43.344817Z,51412,1,200000051412,13,микрорайон,мкр.,"Достык, ул. Тургенская"
3377,2025-01-24T15:00:01.153612Z,2025-01-24T15:00:01.153381Z,51406,1,200000051406,13,микрорайон,мкр.,"Достык, ул. Улагат"
3290,2024-12-30T15:36:59.570401Z,2024-12-30T15:36:59.570106Z,51319,1,200000051319,13,микрорайон,мкр.,"Достык, ул. Фарида Шарипова"
3378,2025-01-24T15:11:18.931123Z,2025-01-24T15:11:18.930915Z,51407,1,200000051407,13,микрорайон,мкр.,"Достык, ул. Шамгона Кажыгалиева"
1496,2020-09-03T10:26:20.482Z,2024-11-06T10:24:09.148587Z,1763,1,200000001763,13,микрорайон,мкр.,"Достык, ул. Яссауи"
1169,2020-09-03T10:26:20.446Z,2020-09-03T10:26:20.446Z,513,1,200000000513,7,переулок,пер.,Дружбы
951,2020-09-03T10:26:20.409Z,2020-09-03T10:26:20.409Z,266,1,200000000266,6,улица,ул.,Дуйсенова
2099,2024-03-01T06:55:08.595364Z,2024-03-01T06:55:08.595090Z,50132,1,200000050132,13,микрорайон,мкр.,Думан 2
1320,2020-09-03T10:26:20.482Z,2020-09-03T10:26:20.482Z,1058,1,200000001058,6,улица,ул.,Дунентаева
1807,2022-11-15T12:50:51.537537Z,2022-11-15T12:50:51.537182Z,9246,1,200000009246,6,улица,ул.,Егизбаева
936,2020-09-03T10:26:20.409Z,2022-11-15T12:48:22.174841Z,249,1,200000000249,6,улица,ул.,Елебекова
3331,2024-12-30T17:43:39.741263Z,2024-12-30T17:43:39.740984Z,51360,1,200000051360,63,коттеджный городок,КГ,"Елисейские поля, ул. Жунисова"
3498,2025-01-31T10:33:37.266133Z,2025-01-31T10:33:37.264820Z,51527,1,200000051527,6,улица,ул.,Енисейская
3604,2025-03-20T05:20:22.751882Z,2025-03-20T05:20:22.751659Z,51633,1,200000051633,6,улица,ул.,Ереванская
1040,2020-09-03T10:26:20.446Z,2020-09-03T10:26:20.446Z,302,1,200000000302,6,улица,ул.,Есенова
2027,2023-06-09T04:09:23.034190Z,2023-06-09T04:09:23.033449Z,50060,1,200000050060,6,улица,ул.,Жазылбека
3299,2024-12-30T16:22:33.963045Z,2024-12-30T16:22:33.962770Z,51328,1,200000051328,13,микрорайон,мкр.,Жайлы
915,2020-09-03T10:26:20.409Z,2022-11-15T12:48:21.908716Z,228,1,200000000228,6,улица,ул.,Жамбыла
1893,2022-11-15T12:51:17.566820Z,2022-11-15T12:51:17.566430Z,9007,1,200000009007,6,улица,ул.,Жангир хана
933,2020-09-03T10:26:20.409Z,2020-09-03T10:26:20.409Z,246,1,200000000246,6,улица,ул.,Жандарбекова
462,2020-09-03T10:26:20.338Z,2020-09-03T10:26:20.338Z,37,1,200000000037,6,улица,ул.,Жандосова
1970,2022-11-19T16:55:46.447984Z,2022-11-19T16:55:46.447083Z,10948,1,200000010948,6,улица,ул.,Жапсарбаева
903,2020-09-03T10:26:20.409Z,2020-09-03T10:26:20.409Z,215,1,200000000215,6,улица,ул.,Жарокова
275,2020-09-03T10:26:20.338Z,2020-09-03T10:26:20.338Z,7128,1,200000007128,13,микрорайон,мкр.,Жас Канат
433,2020-09-03T10:26:20.338Z,2020-09-03T10:26:20.338Z,6,1,200000000006,6,улица,ул.,Желтоксан
444,2020-09-03T10:26:20.338Z,2020-09-03T10:26:20.338Z,17,1,200000000017,13,микрорайон,мкр.,Жетысу 1
445,2020-09-03T10:26:20.338Z,2020-09-03T10:26:20.338Z,18,1,200000000018,13,микрорайон,мкр.,Жетысу 2
446,2020-09-03T10:26:20.338Z,2020-09-03T10:26:20.338Z,19,1,200000000019,13,микрорайон,мкр.,Жетысу 3
479,2020-09-03T10:26:20.338Z,2020-09-03T10:26:20.338Z,59,1,200000000059,13,микрорайон,мкр.,Жетысу 4
464,2020-09-03T10:26:20.338Z,2022-11-15T12:48:23.228834Z,39,1,200000000039,8,проспект,просп.,Жибек Жолы
3486,2025-01-31T10:28:49.555055Z,2025-01-31T10:28:49.554858Z,51515,1,200000051515,6,улица,ул.,Жидели
475,2020-09-03T10:26:20.338Z,2020-09-03T10:26:20.338Z,55,1,200000000055,6,улица,ул.,Жубанова
1319,2020-09-03T10:26:20.482Z,2020-09-03T10:26:20.482Z,1057,1,200000001057,13,микрорайон,мкр.,Жулдыз 1
1318,2020-09-03T10:26:20.482Z,2020-09-03T10:26:20.482Z,1056,1,200000001056,13,микрорайон,мкр.,Жулдыз 2
401,2020-09-03T10:26:20.338Z,2020-09-03T10:26:20.338Z,8063,1,200000008063,6,улица,ул.,Жунисова
1999,2023-03-29T12:49:07.697884Z,2023-03-29T12:49:07.696265Z,50032,1,200000050032,6,улица,ул.,Журавлёва
1041,2020-09-03T10:26:20.446Z,2020-09-03T10:26:20.446Z,303,1,200000000303,6,улица,ул.,Жургенова
1334,2020-09-03T10:26:20.482Z,2020-09-03T10:26:20.482Z,1072,1,200000001072,6,улица,ул.,Закарпатская (Ахметова)
991,2020-09-03T10:26:20.409Z,2020-09-03T10:26:20.409Z,406,1,200000000406,6,улица,ул.,Зенкова
338,2020-09-03T10:26:20.338Z,2020-09-03T10:26:20.338Z,7381,1,200000007381,13,микрорайон,мкр.,Зердели
1358,2020-09-03T10:26:20.482Z,2020-09-03T10:26:20.482Z,1104,1,200000001104,6,улица,ул.,Зорге Рихарда
1177,2020-09-03T10:26:20.446Z,2020-09-03T10:26:20.446Z,522,1,200000000522,6,улица,ул.,Иванова-Сокольского
1971,2022-11-19T18:43:42.731893Z,2022-11-19T18:43:42.731256Z,10928,1,200000010928,6,улица,ул.,Илтипат
908,2020-09-03T10:26:20.409Z,2020-09-03T10:26:20.409Z,220,1,200000000220,6,улица,ул.,Исаева Ураза
952,2020-09-03T10:26:20.409Z,2022-11-15T12:48:20.845046Z,267,1,200000000267,6,улица,ул.,Ислама Каримова
900,2020-09-03T10:26:20.409Z,2020-09-03T10:26:20.409Z,212,1,200000000212,6,улица,ул.,Кабанбай батыра
1455,2020-09-03T10:26:20.482Z,2020-09-03T10:26:20.482Z,1215,1,200000001215,6,улица,ул.,Кабдолова
1173,2020-09-03T10:26:20.446Z,2020-09-03T10:26:20.446Z,518,1,200000000518,6,улица,ул.,Каблукова
1277,2020-09-03T10:26:20.446Z,2020-09-03T10:26:20.446Z,1011,1,200000001011,6,улица,ул.,Кавказская
2124,2024-05-30T12:29:45.451849Z,2024-05-30T12:29:45.449670Z,50157,1,200000050157,6,улица,ул.,Кадыргали Жалайыри
925,2020-09-03T10:26:20.409Z,2020-09-03T10:26:20.409Z,238,1,200000000238,6,улица,ул.,Кажимукана
3495,2025-01-31T10:33:35.497287Z,2025-01-31T10:33:35.497052Z,51524,1,200000051524,6,улица,ул.,Казакпаева
758,2020-09-03T10:26:20.374Z,2020-09-03T10:26:20.374Z,676,1,200000000676,13,микрорайон,мкр.,Казахфильм
434,2020-09-03T10:26:20.338Z,2020-09-03T10:26:20.338Z,7,1,200000000007,6,улица,ул.,Казыбек би
1025,2020-09-03T10:26:20.446Z,2020-09-03T10:26:20.446Z,287,1,200000000287,6,улица,ул.,Каирбекова
1951,2022-11-15T12:51:32.839356Z,2022-11-15T12:51:32.838977Z,10646,1,200000010646,13,микрорайон,мкр.,Кайрат
1938,2022-11-15T12:51:28.806864Z,2022-11-15T12:51:28.806414Z,9966,1,200000009966,13,микрорайон,мкр.,"Кайрат, улица Сарыарка"
1030,2020-09-03T10:26:20.446Z,2020-09-03T10:26:20.446Z,292,1,200000000292,6,улица,ул.,Калдаякова
3333,2024-12-30T17:45:55.932241Z,2024-12-30T17:45:55.931679Z,51362,1,200000051362,13,микрорайон,мкр.,"Калкама-2, ул. Алдана Айымбетова"
386,2020-09-03T10:26:20.338Z,2020-09-03T10:26:20.338Z,7803,1,200000007803,13,микрорайон,мкр.,Калкаман
2039,2023-08-31T12:42:28.368687Z,2023-08-31T12:42:28.368347Z,50072,1,200000050072,13,микрорайон,мкр.,Калкаман-2
3350,2024-12-30T18:06:45.073177Z,2024-12-30T18:06:45.072912Z,51379,1,200000051379,13,микрорайон,мкр.,"Калкаман-2, пер. Комсомольский"
3330,2024-12-30T17:41:31.071273Z,2024-12-30T17:41:31.070891Z,51359,1,200000051359,13,микрорайон,мкр.,"Калкаман-2, ул. Абдразака Елибаева"
3338,2024-12-30T17:51:39.338302Z,2024-12-30T17:51:39.338140Z,51367,1,200000051367,13,микрорайон,мкр.,"Калкаман-2, ул. Абишева"
3308,2024-12-30T17:01:54.136782Z,2024-12-30T17:01:54.136399Z,51337,1,200000051337,13,микрорайон,мкр.,"Калкаман-2, ул. Айбергенова"
3311,2024-12-30T17:10:32.466302Z,2024-12-30T17:10:32.466064Z,51340,1,200000051340,13,микрорайон,мкр.,"Калкаман-2, ул. Айтбаева"
3300,2024-12-30T16:30:37.978216Z,2024-12-30T16:30:37.977967Z,51329,1,200000051329,13,микрорайон,мкр.,"Калкаман-2, ул. Айтей Батыра"
3332,2024-12-30T17:44:43.723675Z,2024-12-30T17:44:43.723366Z,51361,1,200000051361,13,микрорайон,мкр.,"Калкаман-2, ул. Актамберды Жырау"
3334,2024-12-30T17:47:46.787323Z,2024-12-30T17:47:46.787130Z,51363,1,200000051363,13,микрорайон,мкр.,"Калкаман-2, ул. Ануара Молдабекова"
3301,2024-12-30T16:33:33.179392Z,2024-12-30T16:33:33.178337Z,51330,1,200000051330,13,микрорайон,мкр.,"Калкаман-2, ул. Аспандиярова"
3302,2024-12-30T16:36:47.566336Z,2024-12-30T16:36:47.566044Z,51331,1,200000051331,13,микрорайон,мкр.,"Калкаман-2, ул. Аубакира Тыныбаева"
3357,2024-12-30T18:13:23.369121Z,2024-12-30T18:13:23.368850Z,51386,1,200000051386,13,микрорайон,мкр.,"Калкаман-2, ул. Базарбай Жуманиязова"
3317,2024-12-30T17:21:24.822726Z,2024-12-30T17:21:24.821470Z,51346,1,200000051346,13,микрорайон,мкр.,"Калкаман-2, ул. Байзак батыра"
3319,2024-12-30T17:26:01.813210Z,2024-12-30T17:26:01.812911Z,51348,1,200000051348,13,микрорайон,мкр.,"Калкаман-2, ул. Байкена Ашимова"
3337,2024-12-30T17:50:35.029047Z,2024-12-30T17:50:35.028817Z,51366,1,200000051366,13,микрорайон,мкр.,"Калкаман-2, ул. Бекежанова"
3321,2024-12-30T17:27:59.335185Z,2024-12-30T17:27:59.334914Z,51350,1,200000051350,13,микрорайон,мкр.,"Калкаман-2, ул. Ер Жанибека"
3340,2024-12-30T17:53:56.002879Z,2024-12-30T17:53:56.002391Z,51369,1,200000051369,13,микрорайон,мкр.,"Калкаман-2, ул. Жакана Аханова"
3313,2024-12-30T17:12:34.395404Z,2024-12-30T17:12:34.394939Z,51342,1,200000051342,13,микрорайон,мкр.,"Калкаман-2, ул. Ибрая Жакаева"
3339,2024-12-30T17:52:46.026754Z,2024-12-30T17:52:46.026436Z,51368,1,200000051368,13,микрорайон,мкр.,"Калкаман-2, ул. Кабылбаева"
3342,2024-12-30T17:55:53.792001Z,2024-12-30T17:55:53.791779Z,51371,1,200000051371,13,микрорайон,мкр.,"Калкаман-2, ул. Казыбекова"
3343,2024-12-30T17:58:09.697167Z,2024-12-30T17:58:09.696882Z,51372,1,200000051372,13,микрорайон,мкр.,"Калкаман-2, ул. Калауша Бегалиева"
3303,2024-12-30T16:40:45.513783Z,2024-12-30T16:40:45.513525Z,51332,1,200000051332,13,микрорайон,мкр.,"Калкаман-2, ул. Камала Смайылова "
3304,2024-12-30T16:45:25.560157Z,2024-12-30T16:45:25.559720Z,51333,1,200000051333,13,микрорайон,мкр.,"Калкаман-2, ул. Косынова"
3341,2024-12-30T17:55:28.822732Z,2024-12-30T17:55:28.822477Z,51370,1,200000051370,13,микрорайон,мкр.,"Калкаман-2, ул. Кошке Кеменгерулы"
3358,2024-12-30T18:23:22.256246Z,2024-12-30T18:23:22.256024Z,51387,1,200000051387,13,микрорайон,мкр.,"Калкаман-2, ул. Латифа Кыдырбекова"
3344,2024-12-30T17:59:00.081678Z,2024-12-30T17:59:00.081372Z,51373,1,200000051373,13,микрорайон,мкр.,"Калкаман-2, ул. Мансура Сагатова"
3346,2024-12-30T18:00:31.416843Z,2024-12-30T18:00:31.416576Z,51375,1,200000051375,13,микрорайон,мкр.,"Калкаман-2, ул. Мариям Хакимжановой"
3322,2024-12-30T17:30:14.145883Z,2024-12-30T17:30:14.145580Z,51351,1,200000051351,13,микрорайон,мкр.,"Калкаман-2, ул. Меиржана Машана"
3306,2024-12-30T16:52:59.668736Z,2024-12-30T16:52:59.668508Z,51335,1,200000051335,13,микрорайон,мкр.,"Калкаман-2, ул. Нагымбека Нурмухамедова"
3309,2024-12-30T17:02:44.443596Z,2024-12-30T17:02:44.443414Z,51338,1,200000051338,13,микрорайон,мкр.,"Калкаман-2, ул. Нурпеисова"
3325,2024-12-30T17:35:03.316216Z,2024-12-30T17:35:03.315889Z,51354,1,200000051354,13,микрорайон,мкр.,"Калкаман-2, ул. Райымбека Сейтметова"
3345,2024-12-30T18:00:31.162723Z,2024-12-30T18:00:31.162470Z,51374,1,200000051374,13,микрорайон,мкр.,"Калкаман-2, ул. Сатай Батыра"
3347,2024-12-30T18:01:39.054367Z,2024-12-30T18:01:39.054083Z,51376,1,200000051376,13,микрорайон,мкр.,"Калкаман-2, ул. Саурык Батыра"
3310,2024-12-30T17:07:50.071083Z,2024-12-30T17:07:50.070822Z,51339,1,200000051339,13,микрорайон,мкр.,"Калкаман-2, ул. Серали Лапина"
3316,2024-12-30T17:18:35.049204Z,2024-12-30T17:18:35.048901Z,51345,1,200000051345,13,микрорайон,мкр.,"Калкаман-2, ул. Сураншы Батыра"
3348,2024-12-30T18:04:29.207920Z,2024-12-30T18:04:29.207654Z,51377,1,200000051377,13,микрорайон,мкр.,"Калкаман-2, ул. Сыпатай батыра"
3312,2024-12-30T17:12:01.374255Z,2024-12-30T17:12:01.374043Z,51341,1,200000051341,13,микрорайон,мкр.,"Калкаман-2, ул. Тайторы батыра"
3327,2024-12-30T17:36:56.115339Z,2024-12-30T17:36:56.115130Z,51356,1,200000051356,13,микрорайон,мкр.,"Калкаман-2, ул. Токсына Кулыбекова"
3359,2024-12-30T18:26:40.242220Z,2024-12-30T18:26:40.241921Z,51388,1,200000051388,13,микрорайон,мкр.,"Калкаман-2, ул. Толе би"
3335,2024-12-30T17:47:54.661515Z,2024-12-30T17:47:54.661177Z,51364,1,200000051364,13,микрорайон,мкр.,"Калкаман, ул. Бакира Тажибаева"
3336,2024-12-30T17:49:49.728201Z,2024-12-30T17:49:49.727961Z,51365,1,200000051365,13,микрорайон,мкр.,"Калкаман, ул. Жанатая Шарденова"
3307,2024-12-30T16:57:55.339865Z,2024-12-30T16:57:55.339612Z,51336,1,200000051336,13,микрорайон,мкр.,"Калкаман, ул. Жуалы"
3329,2024-12-30T17:39:03.298721Z,2024-12-30T17:39:03.298458Z,51358,1,200000051358,13,микрорайон,мкр.,"Калкаман, ул. Толе би"
3483,2025-01-31T10:26:35.661093Z,2025-01-31T10:26:35.660773Z,51512,1,200000051512,6,улица,ул.,Каракемер
435,2020-09-03T10:26:20.338Z,2020-09-03T10:26:20.338Z,8,1,200000000008,6,улица,ул.,Карасай батыра
1954,2022-11-15T12:51:33.037889Z,2022-11-15T12:51:33.037565Z,10466,1,200000010466,13,микрорайон,мкр.,"Каргалы, ул. Егора Редько"
2040,2023-09-01T08:00:55.524836Z,2023-09-01T08:00:55.524643Z,50073,1,200000050073,6,улица,ул.,Кармысова Камала
1808,2022-11-15T12:50:52.580927Z,2022-11-15T12:50:52.580368Z,10246,1,200000010246,6,улица,ул.,Кассина
1247,2020-09-03T10:26:20.446Z,2020-09-03T10:26:20.446Z,978,1,200000000978,6,улица,ул.,Кассина (Мамыр)
2195,2024-08-16T12:13:47.170050Z,2024-08-16T12:13:47.169454Z,50228,1,200000050228,6,улица,ул.,Касымова
1170,2020-09-03T10:26:20.446Z,2022-11-15T12:48:24.286938Z,514,1,200000000514,6,улица,ул.,Катаева
929,2020-09-03T10:26:20.409Z,2020-09-03T10:26:20.409Z,242,1,200000000242,6,улица,ул.,Кашгарская
1881,2022-11-15T12:51:13.786336Z,2022-11-15T12:51:13.785603Z,8766,1,200000008766,6,улица,ул.,Кенесары хана
3485,2025-01-31T10:27:07.871890Z,2025-01-31T10:27:07.871650Z,51514,1,200000051514,6,улица,ул.,Кенжайлау
3318,2024-12-30T17:22:07.787071Z,2024-12-30T17:22:07.786716Z,51347,1,200000051347,6,улица,ул.,Кенжетаева
2020,2023-05-29T07:45:03.876092Z,2023-05-29T07:45:03.875590Z,50053,1,200000050053,13,микрорайон,мкр.,Керемет
904,2020-09-03T10:26:20.409Z,2020-09-03T10:26:20.409Z,216,1,200000000216,6,улица,ул.,Клочкова
436,2020-09-03T10:26:20.338Z,2020-09-03T10:26:20.338Z,9,1,200000000009,6,улица,ул.,Кожамкулова
3605,2025-03-20T05:20:25.840190Z,2025-03-20T05:20:25.839935Z,51634,1,200000051634,6,улица,ул.,Кожедуба
1380,2020-09-03T10:26:20.482Z,2020-09-03T10:26:20.482Z,1129,1,200000001129,6,улица,ул.,Козыбаева
759,2020-09-03T10:26:20.374Z,2020-09-03T10:26:20.374Z,678,1,200000000678,13,микрорайон,мкр.,Кокжиек
757,2020-09-03T10:26:20.374Z,2020-09-03T10:26:20.374Z,674,1,200000000674,13,микрорайон,мкр.,Кокмайса
1076,2020-09-03T10:26:20.446Z,2020-09-03T10:26:20.446Z,342,1,200000000342,13,микрорайон,мкр.,Коктем 1
958,2020-09-03T10:26:20.409Z,2020-09-03T10:26:20.409Z,273,1,200000000273,13,микрорайон,мкр.,Коктем 2
960,2020-09-03T10:26:20.409Z,2020-09-03T10:26:20.409Z,276,1,200000000276,13,микрорайон,мкр.,Коктем 3
2129,2024-06-20T13:38:28.360729Z,2024-06-20T13:38:28.360083Z,50162,1,200000050162,6,улица,ул.,Коктерек
1174,2020-09-03T10:26:20.446Z,2020-09-03T10:26:20.446Z,519,1,200000000519,6,улица,ул.,Короленко
1809,2022-11-15T12:50:52.689297Z,2022-11-15T12:50:52.688950Z,10326,1,200000010326,6,улица,ул.,Котельникова
3598,2025-03-06T14:48:20.388165Z,2025-03-06T14:57:05.978418Z,51627,1,200000051627,13,микрорайон,мкр.,"Коянкус, ул.Квартал 1"
1000,2020-09-03T10:26:20.409Z,2020-09-03T10:26:20.409Z,418,1,200000000418,13,микрорайон,мкр.,Кулагер
2086,2023-12-26T16:48:30.361668Z,2023-12-26T16:48:30.361327Z,50119,1,200000050119,6,улица,ул.,Култобе
1810,2022-11-15T12:50:52.730375Z,2022-11-15T12:50:52.730027Z,9066,1,200000009066,6,улица,ул.,Кульджинский тракт
1043,2020-09-03T10:26:20.446Z,2020-09-03T10:26:20.446Z,305,1,200000000305,6,улица,ул.,Кунаева
760,2020-09-03T10:26:20.374Z,2020-09-03T10:26:20.374Z,679,1,200000000679,6,улица,ул.,Кунгурская
919,2020-09-03T10:26:20.409Z,2020-09-03T10:26:20.409Z,232,1,200000000232,6,улица,ул.,Курмангазы
1811,2022-11-15T12:50:52.927940Z,2022-11-15T12:50:52.927517Z,9806,1,200000009806,6,улица,ул.,Ладыгина
1441,2020-09-03T10:26:20.482Z,2020-09-03T10:26:20.482Z,1200,1,200000001200,6,улица,ул.,Лебедева
384,2020-09-03T10:26:20.338Z,2020-09-03T10:26:20.338Z,7763,1,200000007763,6,улица,ул.,Луганского
2059,2023-10-31T11:44:58.531132Z,2023-10-31T11:44:58.527584Z,50092,1,200000050092,13,микрорайон,мкр.,Мадениет
761,2020-09-03T10:26:20.374Z,2022-11-15T12:48:25.337189Z,680,1,200000000680,6,улица,ул.,Майлина
930,2020-09-03T10:26:20.409Z,2022-11-15T12:48:26.453754Z,243,1,200000000243,6,улица,ул.,Макатаева
2038,2023-08-31T12:42:25.510328Z,2023-08-31T12:42:25.509916Z,50071,1,200000050071,6,улица,ул.,Мамбетова
1032,2020-09-03T10:26:20.446Z,2022-11-15T12:48:26.517807Z,294,1,200000000294,6,улица,ул.,Маметовой
448,2020-09-03T10:26:20.338Z,2020-09-03T10:26:20.338Z,21,1,200000000021,13,микрорайон,мкр.,Мамыр 1
450,2020-09-03T10:26:20.338Z,2020-09-03T10:26:20.338Z,22,1,200000000022,13,микрорайон,мкр.,Мамыр 2
451,2020-09-03T10:26:20.338Z,2020-09-03T10:26:20.338Z,23,1,200000000023,13,микрорайон,мкр.,Мамыр 3
452,2020-09-03T10:26:20.338Z,2020-09-03T10:26:20.338Z,24,1,200000000024,13,микрорайон,мкр.,Мамыр 4
465,2020-09-03T10:26:20.338Z,2020-09-03T10:26:20.338Z,40,1,200000000040,13,микрорайон,мкр.,Мамыр 7
938,2020-09-03T10:26:20.409Z,2020-09-03T10:26:20.409Z,252,1,200000000252,6,улица,ул.,Манаса
1054,2020-09-03T10:26:20.446Z,2020-09-03T10:26:20.446Z,318,1,200000000318,6,улица,ул.,Маркова
954,2020-09-03T10:26:20.409Z,2020-09-03T10:26:20.409Z,269,1,200000000269,6,улица,ул.,Масанчи
437,2020-09-03T10:26:20.338Z,2022-11-15T12:48:27.592072Z,10,1,200000000010,6,улица,ул.,Мауленова
474,2020-09-03T10:26:20.338Z,2020-09-03T10:26:20.338Z,54,1,200000000054,13,микрорайон,мкр.,микрорайон 1
1885,2022-11-15T12:51:15.010672Z,2022-11-15T12:51:15.010255Z,9166,1,200000009166,13,микрорайон,мкр.,микрорайон 13
482,2020-09-03T10:26:20.338Z,2020-09-03T10:26:20.338Z,63,1,200000000063,13,микрорайон,мкр.,микрорайон 7
2575,2024-10-30T08:29:01.081617Z,2024-10-30T08:29:01.081151Z,50604,1,200000050604,13,микрорайон,мкр.,"микрорайон Алгабас, 11-й квартал"
2579,2024-10-30T08:29:04.738727Z,2024-10-30T08:29:04.738468Z,50608,1,200000050608,13,микрорайон,мкр.,"микрорайон Алгабас, ул. Айнамкоз"
2587,2024-10-30T08:34:07.027605Z,2024-10-30T08:34:07.027213Z,50616,1,200000050616,13,микрорайон,мкр.,"микрорайон Алгабас, ул. Акберен"
2578,2024-10-30T08:29:02.984773Z,2024-10-30T08:29:02.983321Z,50607,1,200000050607,13,микрорайон,мкр.,"микрорайон Алгабас, ул. Акбопе"
2554,2024-10-30T08:17:09.318179Z,2024-10-30T08:17:09.317933Z,50583,1,200000050583,13,микрорайон,мкр.,"микрорайон Алгабас, ул. Акжарма"
2570,2024-10-30T08:26:14.286091Z,2024-10-30T08:26:14.285672Z,50599,1,200000050599,13,микрорайон,мкр.,"микрорайон Алгабас, ул. Акниет"
2583,2024-10-30T08:31:19.055559Z,2024-10-30T08:31:19.055309Z,50612,1,200000050612,13,микрорайон,мкр.,"микрорайон Алгабас, ул. Аксенгир"
2555,2024-10-30T08:17:13.814280Z,2024-10-30T08:17:13.813888Z,50584,1,200000050584,13,микрорайон,мкр.,"микрорайон Алгабас, ул. Акыртас"
2584,2024-10-30T08:31:20.842492Z,2024-10-30T08:31:20.842161Z,50613,1,200000050613,13,микрорайон,мкр.,"микрорайон Алгабас, ул. Алдаспан"
2610,2024-10-30T08:57:05.907703Z,2024-10-30T08:57:05.907392Z,50639,1,200000050639,13,микрорайон,мкр.,"микрорайон Алгабас, ул. Алдияр"
2611,2024-10-30T08:57:08.795458Z,2024-10-30T08:57:08.795184Z,50640,1,200000050640,13,микрорайон,мкр.,"микрорайон Алгабас, ул. Алтынкол"
2571,2024-10-30T08:26:26.456004Z,2024-10-30T08:26:26.455773Z,50600,1,200000050600,13,микрорайон,мкр.,"микрорайон Алгабас, ул. Бабажанова"
2572,2024-10-30T08:26:26.920270Z,2024-10-30T08:26:26.920097Z,50601,1,200000050601,13,микрорайон,мкр.,"микрорайон Алгабас, ул. Балкарагай"
2586,2024-10-30T08:34:06.636342Z,2024-10-30T08:34:06.635949Z,50615,1,200000050615,13,микрорайон,мкр.,"микрорайон Алгабас, ул. Баршын"
2609,2024-10-30T08:57:02.729531Z,2024-10-30T08:57:02.729261Z,50638,1,200000050638,13,микрорайон,мкр.,"микрорайон Алгабас, ул. Бегазы"
2556,2024-10-30T08:17:25.865597Z,2024-10-30T08:17:25.865272Z,50585,1,200000050585,13,микрорайон,мкр.,"микрорайон Алгабас, ул. Беласар"
2573,2024-10-30T08:26:27.848349Z,2024-10-30T08:26:27.848091Z,50602,1,200000050602,13,микрорайон,мкр.,"микрорайон Алгабас, ул. Беласу"
2557,2024-10-30T08:17:26.741361Z,2024-10-30T08:17:26.741100Z,50586,1,200000050586,13,микрорайон,мкр.,"микрорайон Алгабас, ул. Белкудык"
2591,2024-10-30T08:37:52.489577Z,2024-10-30T08:37:52.489255Z,50620,1,200000050620,13,микрорайон,мкр.,"микрорайон Алгабас, ул. Бес Арыс"
2612,2024-10-30T08:57:12.256700Z,2024-10-30T08:57:12.256438Z,50641,1,200000050641,13,микрорайон,мкр.,"микрорайон Алгабас, ул. Бесбатыр"
2605,2024-10-30T08:50:35.918724Z,2024-10-30T08:50:35.917976Z,50634,1,200000050634,13,микрорайон,мкр.,"микрорайон Алгабас, ул. Бесинши Белес"
2606,2024-10-30T08:50:49.020617Z,2024-10-30T08:50:49.020378Z,50635,1,200000050635,13,микрорайон,мкр.,"микрорайон Алгабас, ул. Бойтумар"
2593,2024-10-30T08:38:03.976998Z,2024-10-30T08:38:03.976741Z,50622,1,200000050622,13,микрорайон,мкр.,"микрорайон Алгабас, ул. Борили Байрак"
2550,2024-10-30T08:15:00.529187Z,2024-10-30T08:15:00.528954Z,50579,1,200000050579,13,микрорайон,мкр.,"микрорайон Алгабас, ул. Дастур"
2574,2024-10-30T08:26:28.396863Z,2024-10-30T08:26:28.396601Z,50603,1,200000050603,13,микрорайон,мкр.,"микрорайон Алгабас, ул. Даулет"
2585,2024-10-30T08:34:06.014820Z,2024-10-30T08:34:06.014533Z,50614,1,200000050614,13,микрорайон,мкр.,"микрорайон Алгабас, ул. Домолак Ана"
2551,2024-10-30T08:15:03.143614Z,2024-10-30T08:15:03.143249Z,50580,1,200000050580,13,микрорайон,мкр.,"микрорайон Алгабас, ул. Ерейментау"
2607,2024-10-30T08:50:52.042408Z,2024-10-30T08:50:52.042212Z,50636,1,200000050636,13,микрорайон,мкр.,"микрорайон Алгабас, ул. Жагалтай"
2552,2024-10-30T08:15:03.611610Z,2024-10-30T08:15:03.611350Z,50581,1,200000050581,13,микрорайон,мкр.,"микрорайон Алгабас, ул. Жадигер"
2566,2024-10-30T08:24:14.468600Z,2024-10-30T08:24:14.467959Z,50595,1,200000050595,13,микрорайон,мкр.,"микрорайон Алгабас, ул. Жадыгер"
2553,2024-10-30T08:15:04.030250Z,2024-10-30T08:15:04.029991Z,50582,1,200000050582,13,микрорайон,мкр.,"микрорайон Алгабас, ул. Жана Курылыс"
2589,2024-10-30T08:34:20.337591Z,2024-10-30T08:34:20.337320Z,50618,1,200000050618,13,микрорайон,мкр.,"микрорайон Алгабас, ул. Жаухар"
2567,2024-10-30T08:24:15.561044Z,2024-10-30T08:24:15.560770Z,50596,1,200000050596,13,микрорайон,мкр.,"микрорайон Алгабас, ул. Женис"
2615,2024-10-30T09:00:07.896391Z,2024-10-30T09:00:07.896185Z,50644,1,200000050644,13,микрорайон,мкр.,"микрорайон Алгабас, ул. Жеты Казына"
2608,2024-10-30T08:50:52.129911Z,2024-10-30T08:50:52.129653Z,50637,1,200000050637,13,микрорайон,мкр.,"микрорайон Алгабас, ул. Зияткер"
2600,2024-10-30T08:47:52.675011Z,2024-10-30T08:47:52.674701Z,50629,1,200000050629,13,микрорайон,мкр.,"микрорайон Алгабас, ул. Зулпыкар"
2618,2024-10-30T09:04:32.637614Z,2024-10-30T09:04:32.637312Z,50647,1,200000050647,13,микрорайон,мкр.,"микрорайон Алгабас, ул. Ильяшева"
2545,2024-10-30T08:11:22.766223Z,2024-10-30T08:11:22.765980Z,50574,1,200000050574,13,микрорайон,мкр.,"микрорайон Алгабас, ул. Инабат"
2621,2024-10-30T09:07:19.126146Z,2024-10-30T09:07:19.125828Z,50650,1,200000050650,13,микрорайон,мкр.,"микрорайон Алгабас, ул. Казтуган Жырау"
2704,2024-11-08T09:55:25.051328Z,2024-11-08T09:55:25.051054Z,50733,1,200000050733,13,микрорайон,мкр.,"микрорайон Алгабас, ул. Казына"
2601,2024-10-30T08:47:55.497588Z,2024-10-30T08:47:55.497277Z,50630,1,200000050630,13,микрорайон,мкр.,"микрорайон Алгабас, ул. Кайсар"
2568,2024-10-30T08:24:17.072337Z,2024-10-30T08:24:17.071857Z,50597,1,200000050597,13,микрорайон,мкр.,"микрорайон Алгабас, ул. Калампыр"
2613,2024-10-30T09:00:05.757048Z,2024-10-30T09:00:05.756498Z,50642,1,200000050642,13,микрорайон,мкр.,"микрорайон Алгабас, ул. Камажай"
2577,2024-10-30T08:29:02.009506Z,2024-10-30T08:29:02.009233Z,50606,1,200000050606,13,микрорайон,мкр.,"микрорайон Алгабас, ул. Кара Жорга"
2581,2024-10-30T08:31:07.853577Z,2024-10-30T08:31:07.853219Z,50610,1,200000050610,13,микрорайон,мкр.,"микрорайон Алгабас, ул. Каршыга"
2569,2024-10-30T08:24:23.114370Z,2024-10-30T08:24:23.113787Z,50598,1,200000050598,13,микрорайон,мкр.,"микрорайон Алгабас, ул. Касиет"
2546,2024-10-30T08:11:37.030657Z,2024-10-30T08:11:37.030378Z,50575,1,200000050575,13,микрорайон,мкр.,"микрорайон Алгабас, ул. Катонкарагай"
2602,2024-10-30T08:48:08.522026Z,2024-10-30T08:48:08.521794Z,50631,1,200000050631,13,микрорайон,мкр.,"микрорайон Алгабас, ул. Кенжекей"
2562,2024-10-30T08:22:04.228680Z,2024-10-30T08:22:04.228430Z,50591,1,200000050591,13,микрорайон,мкр.,"микрорайон Алгабас, ул. Керимсал"
2563,2024-10-30T08:22:05.485724Z,2024-10-30T08:22:05.485323Z,50592,1,200000050592,13,микрорайон,мкр.,"микрорайон Алгабас, ул. Кетбуга Жырау"
2625,2024-10-30T09:25:13.499617Z,2024-10-30T09:25:13.499359Z,50654,1,200000050654,13,микрорайон,мкр.,"микрорайон Алгабас, ул. Кожабекова"
2603,2024-10-30T08:48:08.785623Z,2024-10-30T08:48:08.785394Z,50632,1,200000050632,13,микрорайон,мкр.,"микрорайон Алгабас, ул. Козайым"
2564,2024-10-30T08:22:22.256622Z,2024-10-30T08:22:22.256255Z,50593,1,200000050593,13,микрорайон,мкр.,"микрорайон Алгабас, ул. Кокпар"
2548,2024-10-30T08:11:38.406184Z,2024-10-30T08:11:38.405892Z,50577,1,200000050577,13,микрорайон,мкр.,"микрорайон Алгабас, ул. Кумжарган"
2604,2024-10-30T08:48:09.285641Z,2024-10-30T08:48:09.285386Z,50633,1,200000050633,13,микрорайон,мкр.,"микрорайон Алгабас, ул. Кусмурын"
2595,2024-10-30T08:41:17.380910Z,2024-10-30T08:41:17.380017Z,50624,1,200000050624,13,микрорайон,мкр.,"микрорайон Алгабас, ул. Кыранкара"
2565,2024-10-30T08:22:23.846175Z,2024-10-30T08:22:23.845416Z,50594,1,200000050594,13,микрорайон,мкр.,"микрорайон Алгабас, ул. Лермонтова"
2547,2024-10-30T08:11:37.417072Z,2024-10-30T08:11:37.416691Z,50576,1,200000050576,13,микрорайон,мкр.,"микрорайон Алгабас, ул. Маржан"
2596,2024-10-30T08:41:30.400700Z,2024-10-30T08:41:30.399928Z,50625,1,200000050625,13,микрорайон,мкр.,"микрорайон Алгабас, ул. Молдияра Серикбаева"
2592,2024-10-30T08:38:03.770208Z,2024-10-30T08:38:03.769978Z,50621,1,200000050621,13,микрорайон,мкр.,"микрорайон Алгабас, ул. Монке Би "
2549,2024-10-30T08:11:39.568808Z,2024-10-30T08:11:39.568394Z,50578,1,200000050578,13,микрорайон,мкр.,"микрорайон Алгабас, ул. Мырзашокы"
2590,2024-10-30T08:37:51.902487Z,2024-10-30T08:37:51.902233Z,50619,1,200000050619,13,микрорайон,мкр.,"микрорайон Алгабас, ул. Нажмитдина Мухитдинова"
2588,2024-10-30T08:34:07.481238Z,2024-10-30T08:34:07.480902Z,50617,1,200000050617,13,микрорайон,мкр.,"микрорайон Алгабас, ул. Несибе"
2576,2024-10-30T08:29:01.299432Z,2024-10-30T08:29:01.299188Z,50605,1,200000050605,13,микрорайон,мкр.,"микрорайон Алгабас, ул. Оракты Батыра"
2614,2024-10-30T09:00:07.580983Z,2024-10-30T09:00:07.579565Z,50643,1,200000050643,13,микрорайон,мкр.,"микрорайон Алгабас, ул. Орталык"
2624,2024-10-30T09:25:09.906504Z,2024-10-30T09:25:09.905851Z,50653,1,200000050653,13,микрорайон,мкр.,"микрорайон Алгабас, ул. Рамазана Бапова"
2582,2024-10-30T08:31:08.404008Z,2024-10-30T08:31:08.403518Z,50611,1,200000050611,13,микрорайон,мкр.,"микрорайон Алгабас, ул. Сазсырнай"
2597,2024-10-30T08:41:30.562129Z,2024-10-30T08:41:30.561850Z,50626,1,200000050626,13,микрорайон,мкр.,"микрорайон Алгабас, ул. Самен батыра"
2598,2024-10-30T08:41:30.745940Z,2024-10-30T08:41:30.745632Z,50627,1,200000050627,13,микрорайон,мкр.,"микрорайон Алгабас, ул. Саттара Естемесова"
2622,2024-10-30T09:07:21.128211Z,2024-10-30T09:07:21.127854Z,50651,1,200000050651,13,микрорайон,мкр.,"микрорайон Алгабас, ул. Сафи Утебаева"
2559,2024-10-30T08:19:37.943285Z,2024-10-30T08:19:37.943064Z,50588,1,200000050588,13,микрорайон,мкр.,"микрорайон Алгабас, ул. Сейфуллина"
2594,2024-10-30T08:38:04.370880Z,2024-10-30T08:38:04.370599Z,50623,1,200000050623,13,микрорайон,мкр.,"микрорайон Алгабас, ул. Султан"
2599,2024-10-30T08:41:33.901172Z,2024-10-30T08:41:33.898089Z,50628,1,200000050628,13,микрорайон,мкр.,"микрорайон Алгабас, ул. Таусогар"
2560,2024-10-30T08:19:38.092022Z,2024-10-30T08:19:38.091019Z,50589,1,200000050589,13,микрорайон,мкр.,"микрорайон Алгабас, ул. Теипова"
2623,2024-10-30T09:07:22.116166Z,2024-10-30T09:07:22.115653Z,50652,1,200000050652,13,микрорайон,мкр.,"микрорайон Алгабас, ул. Тупкараган"
2561,2024-10-30T08:19:49.865485Z,2024-10-30T08:19:49.864938Z,50590,1,200000050590,13,микрорайон,мкр.,"микрорайон Алгабас, ул. Туран"
2626,2024-10-30T09:28:27.922800Z,2024-10-30T09:28:27.922477Z,50655,1,200000050655,13,микрорайон,мкр.,"микрорайон Алгабас, ул. Фаризы Онгарсыновой"
2617,2024-10-30T09:04:31.659163Z,2024-10-30T09:04:31.658850Z,50646,1,200000050646,13,микрорайон,мкр.,"микрорайон Алгабас, ул. Хакимжана Наурызбаева"
2620,2024-10-30T09:07:17.913313Z,2024-10-30T09:07:17.913087Z,50649,1,200000050649,13,микрорайон,мкр.,"микрорайон Алгабас, ул. Хиуаз Доспановой"
2616,2024-10-30T09:00:08.348708Z,2024-10-30T09:00:08.348486Z,50645,1,200000050645,13,микрорайон,мкр.,"микрорайон Алгабас, ул. Шамшырак"
2619,2024-10-30T09:04:35.908773Z,2024-10-30T09:04:35.908464Z,50648,1,200000050648,13,микрорайон,мкр.,"микрорайон Алгабас, ул. Шарипа Омарова"
2580,2024-10-30T08:31:07.610299Z,2024-10-30T08:31:07.610092Z,50609,1,200000050609,13,микрорайон,мкр.,"микрорайон Алгабас, ул. Шубартал"
2558,2024-10-30T08:19:37.754200Z,2024-10-30T08:19:37.753918Z,50587,1,200000050587,13,микрорайон,мкр.,"микрорайон Алгабас, ул. Шырайлым"
1780,2020-09-03T10:26:20.522Z,2020-09-03T10:26:20.522Z,4781,1,200000004781,6,улица,ул.,Минина
1055,2020-09-03T10:26:20.446Z,2020-09-03T10:26:20.446Z,319,1,200000000319,6,улица,ул.,Минусинская
1812,2022-11-15T12:50:53.020856Z,2022-11-15T12:50:53.020399Z,10186,1,200000010186,13,микрорайон,мкр.,Мирас
87,2020-09-03T10:26:20.302Z,2020-09-03T10:26:20.302Z,5561,1,200000005561,6,улица,ул.,Митина
3766,2025-03-26T11:33:37.837900Z,2025-03-26T11:33:37.837659Z,51795,1,200000051795,13,микрорайон,мкр.,"мкр. Кайрат, 10-я улица"
3781,2025-03-26T11:42:21.392079Z,2025-03-26T11:42:21.391721Z,51811,1,200000051811,13,микрорайон,мкр.,"мкр. Кайрат, 11-я улица"
3782,2025-03-26T11:42:21.791475Z,2025-03-26T11:42:21.791305Z,51812,1,200000051812,13,микрорайон,мкр.,"мкр. Кайрат, 12-я улица"
3780,2025-03-26T11:41:58.892408Z,2025-03-26T11:41:58.892198Z,51810,1,200000051810,13,микрорайон,мкр.,"мкр. Кайрат, 13-я улица"
3783,2025-03-26T11:42:23.550366Z,2025-03-26T11:42:23.550163Z,51813,1,200000051813,13,микрорайон,мкр.,"мкр. Кайрат, 14-я улица"
3784,2025-03-26T11:42:25.019591Z,2025-03-26T11:42:25.019387Z,51814,1,200000051814,13,микрорайон,мкр.,"мкр. Кайрат, 15-я улица"
3785,2025-03-26T11:42:49.469071Z,2025-03-26T11:42:49.468865Z,51815,1,200000051815,13,микрорайон,мкр.,"мкр. Кайрат, 16-я улица"
3787,2025-03-26T11:43:15.663100Z,2025-03-26T11:43:15.662859Z,51817,1,200000051817,13,микрорайон,мкр.,"мкр. Кайрат, 1-я улица"
3778,2025-03-26T11:36:06.310539Z,2025-03-26T11:36:06.310353Z,51807,1,200000051807,13,микрорайон,мкр.,"мкр. Кайрат, 20-я улица"
3777,2025-03-26T11:36:04.167464Z,2025-03-26T11:36:04.167293Z,51806,1,200000051806,13,микрорайон,мкр.,"мкр. Кайрат, 21-я улица"
3776,2025-03-26T11:35:40.580804Z,2025-03-26T11:35:40.580609Z,51805,1,200000051805,13,микрорайон,мкр.,"мкр. Кайрат, 22-я улица"
3775,2025-03-26T11:35:37.500403Z,2025-03-26T11:35:37.500201Z,51804,1,200000051804,13,микрорайон,мкр.,"мкр. Кайрат, 23-я улица"
3779,2025-03-26T11:41:56.264445Z,2025-03-26T11:41:56.264195Z,51809,1,200000051809,13,микрорайон,мкр.,"мкр. Кайрат, 24-я улица"
3786,2025-03-26T11:43:15.107419Z,2025-03-26T11:43:15.107202Z,51816,1,200000051816,13,микрорайон,мкр.,"мкр. Кайрат, 2-я улица"
3747,2025-03-26T11:31:17.512076Z,2025-03-26T11:31:17.511897Z,51776,1,200000051776,13,микрорайон,мкр.,"мкр. Кайрат, 3-я улица"
3744,2025-03-26T11:31:14.354434Z,2025-03-26T11:31:14.354224Z,51773,1,200000051773,13,микрорайон,мкр.,"мкр. Кайрат, 4-я улица"
3748,2025-03-26T11:31:22.107462Z,2025-03-26T11:31:22.107279Z,51777,1,200000051777,13,микрорайон,мкр.,"мкр. Кайрат, 5-я улица"
3758,2025-03-26T11:32:13.270257Z,2025-03-26T11:32:13.269371Z,51787,1,200000051787,13,микрорайон,мкр.,"мкр. Кайрат, 6-я улица"
3765,2025-03-26T11:33:37.337099Z,2025-03-26T11:33:37.336898Z,51794,1,200000051794,13,микрорайон,мкр.,"мкр. Кайрат, 7-я улица"
3745,2025-03-26T11:31:14.607666Z,2025-03-26T11:31:14.607467Z,51774,1,200000051774,13,микрорайон,мкр.,"мкр. Кайрат, 8-я улица"
3746,2025-03-26T11:31:15.509498Z,2025-03-26T11:31:15.509300Z,51775,1,200000051775,13,микрорайон,мкр.,"мкр. Кайрат, 9-я улица"
3771,2025-03-26T11:34:38.503962Z,2025-03-26T11:34:38.503692Z,51800,1,200000051800,13,микрорайон,мкр.,"мкр. Кайрат, улица Акжамал"
3772,2025-03-26T11:35:06.750759Z,2025-03-26T11:35:06.750509Z,51801,1,200000051801,13,микрорайон,мкр.,"мкр. Кайрат, улица Аркар"
3764,2025-03-26T11:33:09.636664Z,2025-03-26T11:33:09.636386Z,51793,1,200000051793,13,микрорайон,мкр.,"мкр. Кайрат, улица Байге"
3760,2025-03-26T11:32:35.829688Z,2025-03-26T11:32:35.829435Z,51789,1,200000051789,13,микрорайон,мкр.,"мкр. Кайрат, улица Белбулак"
3770,2025-03-26T11:34:36.529969Z,2025-03-26T11:34:36.529766Z,51799,1,200000051799,13,микрорайон,мкр.,"мкр. Кайрат, улица Гулдарига"
3763,2025-03-26T11:33:07.621436Z,2025-03-26T11:33:07.621175Z,51792,1,200000051792,13,микрорайон,мкр.,"мкр. Кайрат, улица Данекер"
3742,2025-03-26T11:31:11.713038Z,2025-03-26T11:31:11.712817Z,51771,1,200000051771,13,микрорайон,мкр.,"мкр. Кайрат, улица Даулеткерея"
3757,2025-03-26T11:32:12.772667Z,2025-03-26T11:32:12.772026Z,51786,1,200000051786,13,микрорайон,мкр.,"мкр. Кайрат, улица Жаудир"
3750,2025-03-26T11:31:26.386174Z,2025-03-26T11:31:26.385996Z,51779,1,200000051779,13,микрорайон,мкр.,"мкр. Кайрат, улица Жаяу Мусы"
3755,2025-03-26T11:32:11.804075Z,2025-03-26T11:32:11.803871Z,51784,1,200000051784,13,микрорайон,мкр.,"мкр. Кайрат, улица Канагат"
3774,2025-03-26T11:35:11.396505Z,2025-03-26T11:35:11.396327Z,51803,1,200000051803,13,микрорайон,мкр.,"мкр. Кайрат, улица Коктас"
3767,2025-03-26T11:34:11.709505Z,2025-03-26T11:34:11.709271Z,51796,1,200000051796,13,микрорайон,мкр.,"мкр. Кайрат, улица Коктау"
3749,2025-03-26T11:31:24.885096Z,2025-03-26T11:31:24.884896Z,51778,1,200000051778,13,микрорайон,мкр.,"мкр. Кайрат, улица Коримдик"
3769,2025-03-26T11:34:12.991119Z,2025-03-26T11:34:12.990930Z,51798,1,200000051798,13,микрорайон,мкр.,"мкр. Кайрат, улица Нарбота"
3768,2025-03-26T11:34:12.811941Z,2025-03-26T11:34:12.811745Z,51797,1,200000051797,13,микрорайон,мкр.,"мкр. Кайрат, улица Несибели"
3759,2025-03-26T11:32:34.941856Z,2025-03-26T11:32:34.941690Z,51788,1,200000051788,13,микрорайон,мкр.,"мкр. Кайрат, улица Новая"
3743,2025-03-26T11:31:14.053947Z,2025-03-26T11:31:14.053790Z,51772,1,200000051772,13,микрорайон,мкр.,"мкр. Кайрат, улица Сарыарка"
3762,2025-03-26T11:33:07.079385Z,2025-03-26T11:33:07.079222Z,51791,1,200000051791,13,микрорайон,мкр.,"мкр. Кайрат, улица Сулутал"
3773,2025-03-26T11:35:09.754199Z,2025-03-26T11:35:09.754023Z,51802,1,200000051802,13,микрорайон,мкр.,"мкр. Кайрат, улица Сулушаш"
3754,2025-03-26T11:32:10.659573Z,2025-03-26T11:32:10.659180Z,51783,1,200000051783,13,микрорайон,мкр.,"мкр. Кайрат, улица Сыбызгы"
3752,2025-03-26T11:32:08.384984Z,2025-03-26T11:32:08.384815Z,51781,1,200000051781,13,микрорайон,мкр.,"мкр. Кайрат, улица Тараз"
3761,2025-03-26T11:32:39.011995Z,2025-03-26T11:32:39.011810Z,51790,1,200000051790,13,микрорайон,мкр.,"мкр. Кайрат, улица Токымкагар"
3756,2025-03-26T11:32:12.031849Z,2025-03-26T11:32:12.031617Z,51785,1,200000051785,13,микрорайон,мкр.,"мкр. Кайрат, улица Торгын"
3751,2025-03-26T11:31:43.034986Z,2025-03-26T11:31:43.034812Z,51780,1,200000051780,13,микрорайон,мкр.,"мкр. Кайрат, улица Туркестан"
3753,2025-03-26T11:32:09.381227Z,2025-03-26T11:32:09.381062Z,51782,1,200000051782,13,микрорайон,мкр.,"мкр. Кайрат, улица Ханшайым"
762,2020-09-03T10:26:20.374Z,2020-09-03T10:26:20.374Z,681,1,200000000681,6,улица,ул.,Молдагалиева Жубана
1035,2020-09-03T10:26:20.446Z,2020-09-03T10:26:20.446Z,297,1,200000000297,6,улица,ул.,Молдагуловой Алии
905,2020-09-03T10:26:20.409Z,2022-11-15T12:48:31.613608Z,217,1,200000000217,6,улица,ул.,Муканова
438,2020-09-03T10:26:20.338Z,2020-09-03T10:26:20.338Z,11,1,200000000011,6,улица,ул.,Муратбаева
399,2020-09-03T10:26:20.338Z,2020-09-03T10:26:20.338Z,8023,1,200000008023,3,бульвар,бульв.,Мусрепова
773,2020-09-03T10:26:20.409Z,2020-09-03T10:26:20.409Z,694,1,200000000694,6,улица,ул.,Мустай Карима
496,2020-09-03T10:26:20.338Z,2022-11-15T12:48:31.661641Z,83,1,200000000083,6,улица,ул.,Мустафина
2765,2024-11-27T10:47:32.566832Z,2024-11-27T10:47:32.566551Z,50794,1,200000050794,6,улица,ул.,Мухаммеда Хайдара Дулати
944,2020-09-03T10:26:20.409Z,2020-09-03T10:26:20.409Z,258,1,200000000258,6,улица,ул.,Мынбаева
939,2020-09-03T10:26:20.409Z,2022-11-15T12:48:31.717899Z,253,1,200000000253,6,улица,ул.,Навои
927,2020-09-03T10:26:20.409Z,2020-09-03T10:26:20.409Z,240,1,200000000240,8,проспект,просп.,Назарбаева
405,2020-09-03T10:26:20.338Z,2020-09-03T10:26:20.338Z,8124,1,200000008124,6,улица,ул.,Наманганская
3610,2025-03-20T05:22:50.216520Z,2025-03-20T05:22:50.216255Z,51639,1,200000051639,6,улица,ул.,Нарынкольская
439,2020-09-03T10:26:20.338Z,2020-09-03T10:26:20.338Z,12,1,200000000012,6,улица,ул.,Наурызбай батыра
2668,2024-11-01T04:44:52.139379Z,2024-11-01T04:44:52.139087Z,50697,1,200000050697,6,улица,ул.,Нахимова
992,2020-09-03T10:26:20.409Z,2020-09-03T10:26:20.409Z,407,1,200000000407,6,улица,ул.,Невского
3385,2025-01-28T05:35:36.770398Z,2025-01-28T05:35:36.770190Z,51414,1,200000051414,6,улица,ул.,Немировича-Данченко
763,2020-09-03T10:26:20.374Z,2020-09-03T10:26:20.374Z,682,1,200000000682,6,улица,ул.,Новая
2784,2024-11-27T10:50:57.418858Z,2024-11-27T10:50:57.418620Z,50813,1,200000050813,13,микрорайон,мкр.,"Нур Алатау, 10-я улица"
2785,2024-11-27T10:50:57.507734Z,2024-11-27T10:50:57.507502Z,50814,1,200000050814,13,микрорайон,мкр.,"Нур Алатау, 11-я улица"
2447,2024-10-22T07:22:25.435004Z,2024-10-22T07:22:25.434729Z,50479,1,200000050479,13,микрорайон,мкр.,"Нур Алатау, 14-я улица"
2802,2024-11-27T14:24:47.754672Z,2024-11-27T14:24:47.754358Z,50831,1,200000050831,13,микрорайон,мкр.,"Нур Алатау, 1-я улица"
2446,2024-10-22T07:22:24.499842Z,2024-10-22T07:22:24.499431Z,50478,1,200000050478,13,микрорайон,мкр.,"Нур Алатау, 8-я улица"
2783,2024-11-27T10:50:56.336784Z,2024-11-27T10:50:56.336414Z,50812,1,200000050812,13,микрорайон,мкр.,"Нур Алатау, 9-я улица"
2422,2024-10-22T07:18:07.541322Z,2024-10-22T07:18:07.540927Z,50452,1,200000050452,13,микрорайон,мкр.,"Нур Алатау, ул.Абулхайр-хан"
2440,2024-10-22T07:18:21.413567Z,2024-10-22T07:18:21.412268Z,50470,1,200000050470,13,микрорайон,мкр.,"Нур Алатау, ул.Алмалы бак"
2426,2024-10-22T07:18:08.787575Z,2024-10-22T07:18:08.787028Z,50456,1,200000050456,13,микрорайон,мкр.,"Нур Алатау, ул.Асемтау"
2417,2024-10-22T07:17:14.156908Z,2024-10-22T07:17:14.156539Z,50446,1,200000050446,13,микрорайон,мкр.,"Нур Алатау, ул.Аскара Кунаева"
2454,2024-10-22T07:33:41.110969Z,2024-10-22T07:33:41.110722Z,50489,1,200000050489,13,микрорайон,мкр.,"Нур Алатау, ул.Атабек"
2455,2024-10-22T07:33:41.445679Z,2024-10-22T07:33:41.445112Z,50490,1,200000050490,13,микрорайон,мкр.,"Нур Алатау, ул.Байбулак"
2423,2024-10-22T07:18:07.955230Z,2024-10-22T07:18:07.955001Z,50453,1,200000050453,13,микрорайон,мкр.,"Нур Алатау, ул.Бакдаулет"
2459,2024-10-22T07:34:25.086589Z,2024-10-22T07:34:25.086140Z,50495,1,200000050495,13,микрорайон,мкр.,"Нур Алатау, ул.Бакшалы"
2436,2024-10-22T07:18:20.373611Z,2024-10-22T07:18:20.370594Z,50466,1,200000050466,13,микрорайон,мкр.,"Нур Алатау, ул.Балбобек"
2434,2024-10-22T07:18:20.087843Z,2024-10-22T07:18:20.086862Z,50464,1,200000050464,13,микрорайон,мкр.,"Нур Алатау, ул.Батырхана Шукенова"
2464,2024-10-22T07:36:31.500955Z,2024-10-22T07:36:31.499076Z,50500,1,200000050500,13,микрорайон,мкр.,"Нур Алатау, ул.Бериктас"
2433,2024-10-22T07:18:19.947242Z,2024-10-22T07:18:19.946591Z,50463,1,200000050463,13,микрорайон,мкр.,"Нур Алатау, ул.Болтириковой"
2462,2024-10-22T07:34:58.038391Z,2024-10-22T07:34:58.038161Z,50498,1,200000050498,13,микрорайон,мкр.,"Нур Алатау, ул.Ботай"
2438,2024-10-22T07:18:20.680736Z,2024-10-22T07:18:20.680143Z,50468,1,200000050468,13,микрорайон,мкр.,"Нур Алатау, ул.Булбул"
2435,2024-10-22T07:18:20.271048Z,2024-10-22T07:18:20.264275Z,50465,1,200000050465,13,микрорайон,мкр.,"Нур Алатау, ул.Ерулик"
2465,2024-10-22T07:36:36.400993Z,2024-10-22T07:36:36.400805Z,50501,1,200000050501,13,микрорайон,мкр.,"Нур Алатау, ул.Жанар"
2437,2024-10-22T07:18:20.588766Z,2024-10-22T07:18:20.588470Z,50467,1,200000050467,13,микрорайон,мкр.,"Нур Алатау, ул.Жолбарыс"
2473,2024-10-22T07:39:30.726357Z,2024-10-22T07:39:30.725711Z,50510,1,200000050510,13,микрорайон,мкр.,"Нур Алатау, ул.Жумабаева"
2780,2024-11-27T10:50:53.453112Z,2024-11-27T10:50:53.452515Z,50809,1,200000050809,13,микрорайон,мкр.,"Нур Алатау, ул. Звёздная "
2445,2024-10-22T07:22:12.432751Z,2024-10-22T07:22:12.430045Z,50477,1,200000050477,13,микрорайон,мкр.,"Нур Алатау, ул.Звёздная"
2444,2024-10-22T07:21:04.722801Z,2024-10-22T07:21:04.722476Z,50475,1,200000050475,13,микрорайон,мкр.,"Нур Алатау, ул. Кабдена Байдосова"
2431,2024-10-22T07:18:19.317478Z,2024-10-22T07:18:19.317266Z,50461,1,200000050461,13,микрорайон,мкр.,"Нур Алатау, ул.Казыбек Тауасарулы"
2778,2024-11-27T10:50:52.782212Z,2024-11-27T10:50:52.781900Z,50807,1,200000050807,13,микрорайон,мкр.,"Нур Алатау, ул. Какимбека Салыкова"
2456,2024-10-22T07:33:43.363723Z,2024-10-22T07:33:43.363465Z,50491,1,200000050491,13,микрорайон,мкр.,"Нур Алатау, ул.Каракия"
2453,2024-10-22T07:33:39.965180Z,2024-10-22T07:33:39.964897Z,50488,1,200000050488,13,микрорайон,мкр.,"Нур Алатау, ул.Керемет"
2428,2024-10-22T07:18:08.955612Z,2024-10-22T07:18:08.955314Z,50458,1,200000050458,13,микрорайон,мкр.,"Нур Алатау, ул.Кожакеева"
2439,2024-10-22T07:18:20.862940Z,2024-10-22T07:18:20.862690Z,50469,1,200000050469,13,микрорайон,мкр.,"Нур Алатау, ул.Коксарай"
2490,2024-10-22T08:43:03.178729Z,2024-10-22T08:43:03.178316Z,50525,1,200000050525,13,микрорайон,мкр.,"Нур Алатау, ул.Мади Балиулы"
2430,2024-10-22T07:18:19.231756Z,2024-10-22T07:18:19.231229Z,50460,1,200000050460,13,микрорайон,мкр.,"Нур Алатау, ул.Мамыр"
2489,2024-10-22T08:42:55.688886Z,2024-10-22T08:42:55.688662Z,50524,1,200000050524,13,микрорайон,мкр.,"Нур Алатау, ул.Марал"
2429,2024-10-22T07:18:19.140351Z,2024-10-22T07:18:19.139752Z,50459,1,200000050459,13,микрорайон,мкр.,"Нур Алатау, ул. Мартебе"
2424,2024-10-22T07:18:08.149350Z,2024-10-22T07:18:08.148956Z,50454,1,200000050454,13,микрорайон,мкр.,"Нур Алатау, ул.Мирас"
2457,2024-10-22T07:33:43.706164Z,2024-10-22T07:33:43.705594Z,50492,1,200000050492,13,микрорайон,мкр.,"Нур Алатау, ул.Мойынкум"
2682,2024-11-05T03:18:57.145208Z,2024-11-20T05:14:08.912491Z,50711,1,200000050711,13,микрорайон,мкр.,"Нур Алатау, ул.Мурат"
2463,2024-10-22T07:35:55.419460Z,2024-10-22T07:35:55.419217Z,50499,1,200000050499,13,микрорайон,мкр.,"Нур Алатау, ул.Нурлы Байкенова"
2432,2024-10-22T07:18:19.791658Z,2024-10-22T07:18:19.790761Z,50462,1,200000050462,13,микрорайон,мкр.,"Нур Алатау, ул. Ораза Абишева"
2427,2024-10-22T07:18:08.864950Z,2024-10-22T07:18:08.864682Z,50457,1,200000050457,13,микрорайон,мкр.,"Нур Алатау, ул.Ракишева"
2460,2024-10-22T07:34:25.896795Z,2024-10-22T07:34:25.894144Z,50496,1,200000050496,13,микрорайон,мкр.,"Нур Алатау, ул.Розы Жамановой"
2449,2024-10-22T07:22:26.354333Z,2024-10-22T07:22:26.354097Z,50481,1,200000050481,13,микрорайон,мкр.,"Нур Алатау, ул.Сандыктас"
2441,2024-10-22T07:18:21.696459Z,2024-10-22T07:18:21.696053Z,50471,1,200000050471,13,микрорайон,мкр.,"Нур Алатау, ул. Султангали Шукирова"
2472,2024-10-22T07:39:15.270898Z,2024-10-22T07:39:15.270701Z,50509,1,200000050509,13,микрорайон,мкр.,"Нур Алатау, ул.Танжарык"
2458,2024-10-22T07:34:16.611856Z,2024-10-22T07:34:16.611435Z,50493,1,200000050493,13,микрорайон,мкр.,"Нур Алатау, ул. Теренозек"
2448,2024-10-22T07:22:25.920804Z,2024-10-22T07:22:25.920530Z,50480,1,200000050480,13,микрорайон,мкр.,"Нур Алатау, ул.Токжайлау"
2425,2024-10-22T07:18:08.555545Z,2024-10-22T07:18:08.555250Z,50455,1,200000050455,13,микрорайон,мкр.,"Нур Алатау, ул.Утегенова"
3603,2025-03-20T05:13:32.503244Z,2025-03-20T05:13:32.502953Z,51632,1,200000051632,6,улица,ул.,Нур Алем
171,2020-09-03T10:26:20.302Z,2020-09-03T10:26:20.302Z,5901,1,200000005901,13,микрорайон,мкр.,Нуркент
2770,2024-11-27T10:49:00.079792Z,2024-11-27T10:49:00.079535Z,50799,1,200000050799,13,микрорайон,мкр.,Нурлытау
2772,2024-11-27T10:49:02.330310Z,2024-11-27T10:49:02.330033Z,50801,1,200000050801,13,микрорайон,мкр.,"Нурлытау, 20-я улица"
2792,2024-11-27T10:51:49.818072Z,2024-11-27T10:51:49.817897Z,50821,1,200000050821,13,микрорайон,мкр.,"Нурлытау, 21-я улица"
2800,2024-11-27T14:23:33.069098Z,2024-11-27T14:23:33.068721Z,50829,1,200000050829,13,микрорайон,мкр.,"Нурлытау, 22-я улица"
2793,2024-11-27T10:51:49.986088Z,2024-11-27T10:51:49.985870Z,50822,1,200000050822,13,микрорайон,мкр.,"Нурлытау, 23-я улица"
2773,2024-11-27T10:49:02.444187Z,2024-11-27T10:49:02.443780Z,50802,1,200000050802,13,микрорайон,мкр.,"Нурлытау, 24-я улица"
2776,2024-11-27T10:49:03.264425Z,2024-11-27T10:49:03.264138Z,50805,1,200000050805,13,микрорайон,мкр.,"Нурлытау, 25-я улица"
2757,2024-11-27T10:47:28.036256Z,2024-11-27T10:47:28.034668Z,50786,1,200000050786,13,микрорайон,мкр.,"Нурлытау, 4-я улица"
2758,2024-11-27T10:47:28.355153Z,2024-11-27T10:47:28.354897Z,50787,1,200000050787,13,микрорайон,мкр.,"Нурлытау, пер. Шагын"
2779,2024-11-27T10:50:53.322076Z,2024-11-27T10:50:53.321836Z,50808,1,200000050808,13,микрорайон,мкр.,"Нурлытау, ул. Альпийские луга"
2775,2024-11-27T10:49:02.908821Z,2024-11-27T10:49:02.908510Z,50804,1,200000050804,13,микрорайон,мкр.,"Нурлытау, ул. Бекзада"
2761,2024-11-27T10:47:29.085732Z,2024-11-27T10:47:29.085489Z,50790,1,200000050790,13,микрорайон,мкр.,"Нурлытау, ул. Владимира Кацева"
2755,2024-11-27T09:11:02.589611Z,2024-11-27T09:11:02.589357Z,50784,1,200000050784,13,микрорайон,мкр.,"Нурлытау, ул. Газиза Жубанова"
2799,2024-11-27T10:53:19.401820Z,2024-11-27T10:53:19.401443Z,50828,1,200000050828,13,микрорайон,мкр.,"Нурлытау, ул. Грушёвая"
2759,2024-11-27T10:47:28.446493Z,2024-11-27T10:47:28.446218Z,50788,1,200000050788,13,микрорайон,мкр.,"Нурлытау, ул. Гульнафис Баязитовой"
2760,2024-11-27T10:47:28.996151Z,2024-11-27T10:47:28.995883Z,50789,1,200000050789,13,микрорайон,мкр.,"Нурлытау, ул. Жайыкты"
2777,2024-11-27T10:49:03.949766Z,2024-11-27T10:49:03.949408Z,50806,1,200000050806,13,микрорайон,мкр.,"Нурлытау, ул. Кун Жарык"
2789,2024-11-27T10:51:48.468856Z,2024-11-27T10:51:48.468536Z,50818,1,200000050818,13,микрорайон,мкр.,"Нурлытау, ул. Мерген"
2787,2024-11-27T10:51:47.498668Z,2024-11-27T10:51:47.497449Z,50816,1,200000050816,13,микрорайон,мкр.,"Нурлытау, ул. Мира"
2756,2024-11-27T09:11:03.442331Z,2024-11-27T09:11:03.442014Z,50785,1,200000050785,13,микрорайон,мкр.,"Нурлытау, ул. Набережная "
2797,2024-11-27T10:52:47.662086Z,2024-11-27T10:52:47.661748Z,50826,1,200000050826,13,микрорайон,мкр.,"Нурлытау, ул. Осиет"
2762,2024-11-27T10:47:29.231447Z,2024-11-27T10:47:29.231204Z,50791,1,200000050791,13,микрорайон,мкр.,"Нурлытау, ул. Рафики Нуртазиной"
2771,2024-11-27T10:49:02.193672Z,2024-11-27T10:49:02.193340Z,50800,1,200000050800,13,микрорайон,мкр.,"Нурлытау, ул. Розы Жамановой"
2791,2024-11-27T10:51:49.493283Z,2024-11-27T10:51:49.493037Z,50820,1,200000050820,13,микрорайон,мкр.,"Нурлытау, ул. Садовая "
2782,2024-11-27T10:50:53.864149Z,2024-11-27T10:50:53.863844Z,50811,1,200000050811,13,микрорайон,мкр.,"Нурлытау, ул. Салтанат"
2795,2024-11-27T10:52:16.807435Z,2024-11-27T10:52:16.807042Z,50824,1,200000050824,13,микрорайон,мкр.,"Нурлытау, ул. Сапарлы Жол"
2774,2024-11-27T10:49:02.552148Z,2024-11-27T10:49:02.551317Z,50803,1,200000050803,13,микрорайон,мкр.,"Нурлытау, ул. Таншолпан"
2788,2024-11-27T10:51:47.973829Z,2024-11-27T10:51:47.973321Z,50817,1,200000050817,13,микрорайон,мкр.,"Нурлытау, ул. Центральная"
2801,2024-11-27T14:23:59.086679Z,2024-11-27T14:23:59.086230Z,50830,1,200000050830,13,микрорайон,мкр.,"Нурлытау, ул. Южная"
916,2020-09-03T10:26:20.409Z,2020-09-03T10:26:20.409Z,229,1,200000000229,6,улица,ул.,Нурмакова
1042,2020-09-03T10:26:20.446Z,2020-09-03T10:26:20.446Z,304,1,200000000304,6,улица,ул.,Нусупбекова
1335,2020-09-03T10:26:20.482Z,2020-09-03T10:26:20.482Z,1074,1,200000001074,6,улица,ул.,Огарева
1001,2020-09-03T10:26:20.409Z,2022-11-15T12:48:31.799769Z,419,1,200000000419,6,улица,ул.,Омарова
491,2020-09-03T10:26:20.338Z,2020-09-03T10:26:20.338Z,78,1,200000000078,13,микрорайон,мкр.,Орбита 1
492,2020-09-03T10:26:20.338Z,2020-09-03T10:26:20.338Z,79,1,200000000079,13,микрорайон,мкр.,Орбита 2
493,2020-09-03T10:26:20.338Z,2020-09-03T10:26:20.338Z,80,1,200000000080,13,микрорайон,мкр.,Орбита 3
494,2020-09-03T10:26:20.338Z,2020-09-03T10:26:20.338Z,81,1,200000000081,13,микрорайон,мкр.,Орбита 4
3505,2025-01-31T10:35:33.976368Z,2025-01-31T10:35:33.976168Z,51534,1,200000051534,6,улица,ул.,Орджоникидзе
2794,2024-11-27T10:52:16.643233Z,2024-11-27T10:52:16.643028Z,50823,1,200000050823,6,улица,ул.,Осиет
764,2020-09-03T10:26:20.374Z,2020-09-03T10:26:20.374Z,683,1,200000000683,6,улица,ул.,Осипенко
3478,2025-01-31T10:21:17.673822Z,2025-01-31T10:21:17.673624Z,51507,1,200000051507,6,улица,ул.,Оспанхана Аубакирова
994,2020-09-03T10:26:20.409Z,2020-09-03T10:26:20.409Z,409,1,200000000409,6,улица,ул.,Павлодарская
928,2020-09-03T10:26:20.409Z,2020-09-03T10:26:20.409Z,241,1,200000000241,6,улица,ул.,Панфилова
3500,2025-01-31T10:34:11.694110Z,2025-01-31T10:34:11.693812Z,51529,1,200000051529,6,улица,ул.,Папанина
422,2020-09-03T10:26:20.338Z,2020-09-03T10:26:20.338Z,8384,1,200000008384,6,улица,ул.,Пирогова
1298,2020-09-03T10:26:20.482Z,2020-09-03T10:26:20.482Z,1036,1,200000001036,6,улица,ул.,Писарева
253,2020-09-03T10:26:20.302Z,2020-09-03T10:26:20.302Z,6881,1,200000006881,6,улица,ул.,ПК Горный гигант
2097,2024-02-22T05:24:28.348796Z,2024-02-22T05:24:28.348578Z,50130,1,200000050130,6,улица,ул.,ПК Кунаева
2492,2024-10-22T08:43:10.423277Z,2024-10-22T08:43:10.422899Z,50527,1,200000050527,74,Садовое товарищество,ст,"ПКСТ Картограф 1, улица Восточная"
2476,2024-10-22T08:37:34.365907Z,2024-10-22T08:37:54.538911Z,50484,1,200000050484,74,Садовое товарищество,ст,"ПКСТ Картограф 1, улица Западная"
2496,2024-10-23T10:55:40.758519Z,2024-10-23T10:55:50.800531Z,50512,1,200000050512,74,Садовое товарищество,ст,"ПКСТ Картограф 1, улица Приовражная"
2493,2024-10-22T08:43:14.869698Z,2024-10-22T08:43:14.869346Z,50528,1,200000050528,74,Садовое товарищество,ст,"ПКСТ Картограф 1, улица Северная"
2491,2024-10-22T08:43:09.481391Z,2024-10-22T08:43:09.480768Z,50526,1,200000050526,74,Садовое товарищество,ст,"ПКСТ Труд-2, улица Приовражная"
765,2020-09-03T10:26:20.374Z,2020-09-03T10:26:20.374Z,684,1,200000000684,13,микрорайон,мкр.,ПМК 610 (Мамыр)
1581,2020-09-03T10:26:20.522Z,2020-09-03T10:26:20.522Z,2781,1,200000002781,6,улица,ул.,Подключение BeeTV
3606,2025-03-20T05:21:23.942035Z,2025-03-20T05:21:23.941790Z,51635,1,200000051635,6,улица,ул.,Покрышкина
234,2020-09-03T10:26:20.302Z,2020-09-03T10:26:20.302Z,6561,1,200000006561,6,улица,ул.,Политехническая
1056,2020-09-03T10:26:20.446Z,2020-09-03T10:26:20.446Z,320,1,200000000320,6,улица,ул.,Попова
959,2020-09-03T10:26:20.409Z,2020-09-03T10:26:20.409Z,275,1,200000000275,6,улица,ул.,Прокофьева
1037,2020-09-03T10:26:20.446Z,2020-09-03T10:26:20.446Z,299,1,200000000299,6,улица,ул.,Пушкина
457,2020-09-03T10:26:20.338Z,2020-09-03T10:26:20.338Z,31,1,200000000031,6,улица,ул.,Пятницкого
920,2020-09-03T10:26:20.409Z,2020-09-03T10:26:20.409Z,233,1,200000000233,6,улица,ул.,Радостовца
1034,2020-09-03T10:26:20.446Z,2020-09-03T10:26:20.446Z,296,1,200000000296,8,проспект,просп.,Райымбека
1077,2020-09-03T10:26:20.446Z,2020-09-03T10:26:20.446Z,343,1,200000000343,6,улица,ул.,Римского-Корсакова
921,2020-09-03T10:26:20.409Z,2020-09-03T10:26:20.409Z,234,1,200000000234,6,улица,ул.,Розыбакиева
3613,2025-03-20T05:23:17.019493Z,2025-03-20T05:23:17.019249Z,51642,1,200000051642,6,улица,ул.,Руставели
460,2020-09-03T10:26:20.338Z,2020-09-03T10:26:20.338Z,35,1,200000000035,6,улица,ул.,Рыскулбекова
1491,2020-09-03T10:26:20.482Z,2022-11-15T12:50:52.636223Z,1741,1,200000001741,6,улица,ул.,Сагадата Нурмагамбетова
2798,2024-11-27T10:52:52.536527Z,2024-11-27T10:52:52.536275Z,50827,1,200000050827,74,Садовое товарищество,ст,садоводческое товарищество Буран
2745,2024-11-27T09:10:09.896511Z,2024-11-27T09:10:09.896312Z,50774,1,200000050774,74,Садовое товарищество,ст,садоводческое товарищество Свежесть
2790,2024-11-27T10:51:49.396265Z,2024-11-27T10:51:49.395031Z,50819,1,200000050819,74,Садовое товарищество,ст,садоводческое товарищество Эдельвейс
2763,2024-11-27T10:47:29.643862Z,2024-11-27T10:47:29.643481Z,50792,1,200000050792,74,Садовое товарищество,ст,садоводческое товарищество Энергетик-2
2764,2024-11-27T10:47:30.418415Z,2024-11-27T10:47:30.418164Z,50793,1,200000050793,74,Садовое товарищество,ст,садоводческое товарищество Энергия
2796,2024-11-27T10:52:18.035352Z,2024-11-27T10:52:18.035124Z,50825,1,200000050825,74,Садовое товарищество,ст,садоводческое товарищество Энергия-3
766,2020-09-03T10:26:20.374Z,2020-09-03T10:26:20.374Z,685,1,200000000685,3,бульвар,бульв.,Садовый (Мамыр)
767,2020-09-03T10:26:20.374Z,2020-09-03T10:26:20.374Z,686,1,200000000686,6,улица,ул.,Саина
252,2020-09-03T10:26:20.302Z,2020-09-03T10:26:20.302Z,6861,1,200000006861,13,микрорайон,мкр.,Сайран
931,2020-09-03T10:26:20.409Z,2020-09-03T10:26:20.409Z,244,1,200000000244,13,микрорайон,мкр.,Самал 1
937,2020-09-03T10:26:20.409Z,2020-09-03T10:26:20.409Z,251,1,200000000251,13,микрорайон,мкр.,Самал 2
2107,2024-04-12T11:42:48.120056Z,2024-04-12T11:42:48.119838Z,50140,1,200000050140,13,микрорайон,мкр.,Самал 3
1813,2022-11-15T12:50:54.138911Z,2024-10-01T09:54:34.510526Z,10506,1,200000010506,6,улица,ул.,Санаторная
941,2020-09-03T10:26:20.409Z,2020-09-03T10:26:20.409Z,255,1,200000000255,6,улица,ул.,Сатпаева
768,2020-09-03T10:26:20.409Z,2020-09-03T10:26:20.409Z,687,1,200000000687,6,улица,ул.,Сауранбаева Тлеуберды
217,2020-09-03T10:26:20.302Z,2020-09-03T10:26:20.302Z,6282,1,200000006282,6,улица,ул.,Саурык батыра
333,2020-09-03T10:26:20.338Z,2020-09-03T10:26:20.338Z,7301,1,200000007301,13,микрорайон,мкр.,Саялы
1814,2022-11-15T12:50:54.232587Z,2022-11-15T12:50:54.232233Z,8946,1,200000008946,6,улица,ул.,Северное кольцо
440,2020-09-03T10:26:20.338Z,2022-11-25T18:12:24.377585Z,13,1,200000000013,8,проспект,просп.,Сейфуллина
1392,2020-09-03T10:26:20.482Z,2022-11-15T12:48:32.924888Z,1142,1,200000001142,6,улица,ул.,Серикова
1179,2020-09-03T10:26:20.446Z,2020-09-03T10:26:20.446Z,524,1,200000000524,6,улица,ул.,Си-Синхая
1815,2022-11-15T12:50:54.275421Z,2022-11-15T12:50:54.275066Z,10807,1,200000010807,6,улица,ул.,Скрябина
769,2020-09-03T10:26:20.409Z,2020-09-03T10:26:20.409Z,688,1,200000000688,10,проезд,проезд,Солнечный (Мамыр)
1168,2020-09-03T10:26:20.446Z,2020-09-03T10:26:20.446Z,512,1,200000000512,6,улица,ул.,Солодовникова
770,2020-09-03T10:26:20.409Z,2020-09-03T10:26:20.409Z,689,1,200000000689,6,улица,ул.,Спартака
771,2020-09-03T10:26:20.409Z,2020-09-03T10:26:20.409Z,690,1,200000000690,6,улица,ул.,Спортивная (Мамыр)
2484,2024-10-22T08:42:38.331165Z,2024-10-22T08:42:38.330947Z,50519,1,200000050519,74,Садовое товарищество,ст,СТ Алма-3а
3615,2025-03-20T05:24:48.098126Z,2025-03-20T05:24:48.097876Z,51644,1,200000051644,6,улица,ул.,Стальского
772,2020-09-03T10:26:20.409Z,2020-09-03T10:26:20.409Z,691,1,200000000691,6,улица,ул.,Станкевича
373,2020-09-03T10:26:20.338Z,2024-10-01T09:40:14.094650Z,7583,1,200000007583,6,улица,ул.,СТ Достык
2488,2024-10-22T08:42:55.319085Z,2024-10-22T08:42:55.318777Z,50523,1,200000050523,74,Садовое товарищество,ст,"СТ им. Дзержинского, улица Виноградная"
2494,2024-10-22T08:43:16.198979Z,2024-10-22T08:43:16.198644Z,50529,1,200000050529,74,Садовое товарищество,ст,"СТ им. Дзержинского, улица Восточная"
2487,2024-10-22T08:42:54.202650Z,2024-10-22T08:42:54.202380Z,50522,1,200000050522,74,Садовое товарищество,ст,"СТ им. Дзержинского, улица Грушовая"
2474,2024-10-22T08:25:09.759366Z,2024-10-22T08:25:09.759089Z,50476,1,200000050476,74,Садовое товарищество,ст,"СТ им.Дзержинского, улица Дзержинского"
2475,2024-10-22T08:34:33.108005Z,2024-10-22T08:34:43.152601Z,50486,1,200000050486,74,Садовое товарищество,ст,"СТ им. Дзержинского, улица Трудовая"
2477,2024-10-22T08:38:44.642579Z,2024-10-22T08:38:54.681754Z,50474,1,200000050474,74,Садовое товарищество,ст,СТ Источник
1816,2022-11-15T12:50:54.330337Z,2022-11-15T12:50:54.329891Z,8466,1,200000008466,6,улица,ул.,Стрелецкая
2486,2024-10-22T08:42:51.535641Z,2024-10-22T08:42:51.533578Z,50521,1,200000050521,74,Садовое товарищество,ст,"СТ Сирень, улица Совхозная"
2485,2024-10-22T08:42:50.800324Z,2024-10-22T08:42:50.800008Z,50520,1,200000050520,74,Садовое товарищество,ст,"СТ Сирень, улица Фруктовая"
2786,2024-11-27T10:51:44.820332Z,2024-11-27T10:51:44.820160Z,50815,1,200000050815,13,микрорайон,мкр.,"СТ Труд, ул. Трудовая"
2498,2024-10-24T08:31:47.529646Z,2024-10-24T08:32:07.674279Z,50502,1,200000050502,74,Садовое товарищество,ст,"СТ Энергетик, Переулок Макарова"
2499,2024-10-24T08:45:29.487281Z,2024-10-24T08:45:39.541927Z,50494,1,200000050494,74,Садовое товарищество,ст,"СТ Энергетик, Северный переулок"
2502,2024-10-24T08:54:52.618952Z,2024-10-24T08:55:52.744872Z,50451,1,200000050451,74,Садовое товарищество,ст,"СТ Энергетик, улица Солнечная"
2500,2024-10-24T08:47:40.182374Z,2024-10-24T08:53:10.721405Z,50487,1,200000050487,74,Садовое товарищество,ст,"СТ Энергетик, улица Энергетическая"
2482,2024-10-22T08:42:30.591949Z,2024-10-22T08:42:30.591706Z,50517,1,200000050517,74,Садовое товарищество,ст,"СТ Энергостроитель, улица Восточная"
2483,2024-10-22T08:42:33.614291Z,2024-10-22T08:42:33.614Z,50518,1,200000050518,74,Садовое товарищество,ст,"СТ Энергостроитель, улица Западная"
2495,2024-10-23T10:54:29.250070Z,2024-10-23T10:54:39.320839Z,50511,1,200000050511,74,Садовое товарищество,ст,"СТ Энергостроитель, улица Центральная"
459,2020-09-03T10:26:20.338Z,2020-09-03T10:26:20.338Z,34,1,200000000034,6,улица,ул.,Сулейменова
2005,2023-04-13T05:17:59.629343Z,2023-04-13T05:17:59.628060Z,50038,1,200000050038,6,улица,ул.,Сухамбаева
1494,2020-09-03T10:26:20.482Z,2020-09-03T10:26:20.482Z,1744,1,200000001744,8,проспект,просп.,Суюнбая
3320,2024-12-30T17:26:49.926268Z,2024-12-30T17:26:49.925963Z,51349,1,200000051349,6,улица,ул.,Сыгай
3479,2025-01-31T10:21:20.233147Z,2025-01-31T10:21:20.232701Z,51508,1,200000051508,6,улица,ул.,Сыганак
1175,2020-09-03T10:26:20.446Z,2020-09-03T10:26:20.446Z,520,1,200000000520,6,улица,ул.,Тажибаевой Патшайым
3362,2024-12-31T03:01:59.057628Z,2024-12-31T03:01:59.057368Z,51391,1,200000051391,7,переулок,пер.,Таргап
3323,2024-12-30T17:32:45.094124Z,2024-12-30T17:32:45.093868Z,51352,1,200000051352,6,улица,ул.,Таргап
1017,2020-09-03T10:26:20.409Z,2020-09-03T10:26:20.409Z,437,1,200000000437,13,микрорайон,мкр.,Тастак 1
326,2020-09-03T10:26:20.338Z,2020-09-03T10:26:20.338Z,6721,1,200000006721,13,микрорайон,мкр.,Тастак 2
1224,2020-09-03T10:26:20.446Z,2020-09-03T10:26:20.446Z,571,1,200000000571,13,микрорайон,мкр.,Таугуль
455,2020-09-03T10:26:20.338Z,2020-09-03T10:26:20.338Z,29,1,200000000029,13,микрорайон,мкр.,Таугуль 1
456,2020-09-03T10:26:20.338Z,2020-09-03T10:26:20.338Z,30,1,200000000030,13,микрорайон,мкр.,Таугуль 2
1429,2020-09-03T10:26:20.482Z,2020-09-03T10:26:20.482Z,1187,1,200000001187,13,микрорайон,мкр.,Таугуль (Яссауи)
3491,2025-01-31T10:33:33.770552Z,2025-01-31T10:33:33.770352Z,51520,1,200000051520,6,улица,ул.,Таштитова
1817,2022-11-15T12:50:54.385310Z,2022-11-15T12:50:54.384888Z,8467,1,200000008467,6,улица,ул.,Текелийская
949,2020-09-03T10:26:20.409Z,2020-09-03T10:26:20.409Z,264,1,200000000264,6,улица,ул.,Текстильная
3189,2024-12-23T12:28:52.699741Z,2024-12-23T12:28:52.699558Z,51218,1,200000051218,13,микрорайон,мкр.,"Теректы, квартал КазМиС"
3174,2024-12-23T12:28:01.271214Z,2024-12-23T12:28:01.270939Z,51203,1,200000051203,13,микрорайон,мкр.,"Теректы, ул. Айналмалы"
3183,2024-12-23T12:28:39.905180Z,2024-12-23T12:28:39.904827Z,51212,1,200000051212,13,микрорайон,мкр.,"Теректы, ул. Акадыр"
3188,2024-12-23T12:28:52.286981Z,2024-12-23T12:28:52.286747Z,51217,1,200000051217,13,микрорайон,мкр.,"Теректы, ул. Акжал"
3158,2024-12-23T12:16:12.692617Z,2024-12-23T12:16:12.692373Z,51187,1,200000051187,13,микрорайон,мкр.,"Теректы, ул. Акжаркын"
3208,2024-12-23T12:29:54.144355Z,2024-12-23T12:29:54.143815Z,51237,1,200000051237,13,микрорайон,мкр.,"Теректы, ул. Аккия"
3159,2024-12-23T12:16:12.789043Z,2024-12-23T12:16:12.788825Z,51188,1,200000051188,13,микрорайон,мкр.,"Теректы, ул. Актилек"
3186,2024-12-23T12:28:49.998793Z,2024-12-23T12:28:49.998590Z,51215,1,200000051215,13,микрорайон,мкр.,"Теректы, ул. Алтын Гасыр"
3207,2024-12-23T12:29:53.972452Z,2024-12-23T12:29:53.972275Z,51236,1,200000051236,13,микрорайон,мкр.,"Теректы, ул. Аманбоктер"
3170,2024-12-23T12:27:58.053555Z,2024-12-23T12:27:58.053279Z,51199,1,200000051199,13,микрорайон,мкр.,"Теректы, ул. Байгара"
3209,2024-12-23T12:29:56.511541Z,2024-12-23T12:29:56.511260Z,51238,1,200000051238,13,микрорайон,мкр.,"Теректы, ул. Байыркум"
3200,2024-12-23T12:29:17.693344Z,2024-12-23T12:29:17.693107Z,51229,1,200000051229,13,микрорайон,мкр.,"Теректы, ул. Бегайым"
3215,2024-12-23T12:30:25.484947Z,2024-12-23T12:30:25.484665Z,51244,1,200000051244,13,микрорайон,мкр.,"Теректы, ул. Белкараган"
3191,2024-12-23T12:28:53.569421Z,2024-12-23T12:28:53.569206Z,51220,1,200000051220,13,микрорайон,мкр.,"Теректы, ул. Бестогай"
3157,2024-12-23T12:16:12.572275Z,2024-12-23T12:16:12.572068Z,51186,1,200000051186,13,микрорайон,мкр.,"Теректы, ул. Жагалтай"
3190,2024-12-23T12:28:52.894378Z,2024-12-23T12:28:52.894025Z,51219,1,200000051219,13,микрорайон,мкр.,"Теректы, ул. Жана Гасыр"
3181,2024-12-23T12:28:38.391677Z,2024-12-23T12:28:38.391350Z,51210,1,200000051210,13,микрорайон,мкр.,"Теректы, ул. Жасоркен"
3195,2024-12-23T12:29:04.633976Z,2024-12-23T12:29:04.633593Z,51224,1,200000051224,13,микрорайон,мкр.,"Теректы, ул. Жас Отау"
3184,2024-12-23T12:28:42.412046Z,2024-12-23T12:28:42.411877Z,51213,1,200000051213,13,микрорайон,мкр.,"Теректы, ул. Жасыл Желек"
3214,2024-12-23T12:30:23.608642Z,2024-12-23T12:30:23.608323Z,51243,1,200000051243,13,микрорайон,мкр.,"Теректы, ул. Жиренколь"
3205,2024-12-23T12:29:51.730351Z,2024-12-23T12:29:51.729976Z,51234,1,200000051234,13,микрорайон,мкр.,"Теректы, ул. Зияткер"
3213,2024-12-23T12:30:22.560684Z,2024-12-23T12:30:22.560381Z,51242,1,200000051242,13,микрорайон,мкр.,"Теректы, ул. Иманбурлык"
3156,2024-12-23T12:16:11.966391Z,2024-12-23T12:16:11.966108Z,51185,1,200000051185,13,микрорайон,мкр.,"Теректы, ул. Камшат"
3172,2024-12-23T12:27:59.129329Z,2024-12-23T12:27:59.129122Z,51201,1,200000051201,13,микрорайон,мкр.,"Теректы, ул. Квартал Жетысу"
3160,2024-12-23T12:16:13.013770Z,2024-12-23T12:16:13.013511Z,51189,1,200000051189,13,микрорайон,мкр.,"Теректы, ул. Керуен"
3197,2024-12-23T12:29:05.246526Z,2024-12-23T12:29:05.246355Z,51226,1,200000051226,13,микрорайон,мкр.,"Теректы, ул. Кожабекова"
3182,2024-12-23T12:28:39.551251Z,2024-12-23T12:28:39.550994Z,51211,1,200000051211,13,микрорайон,мкр.,"Теректы, ул. Коккемер"
3167,2024-12-23T12:27:54.180669Z,2024-12-23T12:27:54.180436Z,51196,1,200000051196,13,микрорайон,мкр.,"Теректы, ул. Коныролен"
3179,2024-12-23T12:28:14.477830Z,2024-12-23T12:28:14.477577Z,51208,1,200000051208,13,микрорайон,мкр.,"Теректы, ул. Корганжар"
3177,2024-12-23T12:28:12.675558Z,2024-12-23T12:28:12.674790Z,51206,1,200000051206,13,микрорайон,мкр.,"Теректы, ул. Кунгейли"
3216,2024-12-23T12:30:27.613412Z,2024-12-23T12:30:27.613203Z,51245,1,200000051245,13,микрорайон,мкр.,"Теректы, ул. Курсары"
3163,2024-12-23T12:16:19.642197Z,2024-12-23T12:16:19.642019Z,51192,1,200000051192,13,микрорайон,мкр.,"Теректы, ул. Курылыс"
3206,2024-12-23T12:29:51.835753Z,2024-12-23T12:29:51.835437Z,51235,1,200000051235,13,микрорайон,мкр.,"Теректы, ул. Кызгалдак"
3178,2024-12-23T12:28:12.782579Z,2024-12-23T12:28:12.782275Z,51207,1,200000051207,13,микрорайон,мкр.,"Теректы, ул. Кызылтау"
3180,2024-12-23T12:28:16.293117Z,2024-12-23T12:28:16.292800Z,51209,1,200000051209,13,микрорайон,мкр.,"Теректы, ул. Майкудык"
3173,2024-12-23T12:28:00.348329Z,2024-12-23T12:28:00.348059Z,51202,1,200000051202,13,микрорайон,мкр.,"Теректы, ул. Малайсары"
3164,2024-12-23T12:27:53.347887Z,2024-12-23T12:27:53.347669Z,51193,1,200000051193,13,микрорайон,мкр.,"Теректы, ул. Манысай"
3202,2024-12-23T12:29:19.794910Z,2024-12-23T12:29:19.794676Z,51231,1,200000051231,13,микрорайон,мкр.,"Теректы, ул. Мектеп"
3176,2024-12-23T12:28:09.299678Z,2024-12-23T12:28:09.299171Z,51205,1,200000051205,13,микрорайон,мкр.,"Теректы, ул. Нарсая"
3199,2024-12-23T12:29:11.140911Z,2024-12-23T12:29:11.140519Z,51228,1,200000051228,13,микрорайон,мкр.,"Теректы, ул. Оленти"
3185,2024-12-23T12:28:45.835265Z,2024-12-23T12:28:45.835052Z,51214,1,200000051214,13,микрорайон,мкр.,"Теректы, ул. Орталык"
3166,2024-12-23T12:27:54.086615Z,2024-12-23T12:27:54.086411Z,51195,1,200000051195,13,микрорайон,мкр.,"Теректы, ул. Сайгакты"
3204,2024-12-23T12:29:20.296574Z,2024-12-23T12:29:20.296353Z,51233,1,200000051233,13,микрорайон,мкр.,"Теректы, ул. Сайгулик"
3196,2024-12-23T12:29:04.801381Z,2024-12-23T12:29:04.801129Z,51225,1,200000051225,13,микрорайон,мкр.,"Теректы, ул. Сайына Муратбекова"
3201,2024-12-23T12:29:18.382392Z,2024-12-23T12:29:18.381988Z,51230,1,200000051230,13,микрорайон,мкр.,"Теректы, ул. Сайыпкыран"
3175,2024-12-23T12:28:02.635315Z,2024-12-23T12:28:02.634865Z,51204,1,200000051204,13,микрорайон,мкр.,"Теректы, ул. Сарыкемер"
3198,2024-12-23T12:29:06.634992Z,2024-12-23T12:29:06.634127Z,51227,1,200000051227,13,микрорайон,мкр.,"Теректы, ул. Саумалкол"
3212,2024-12-23T12:30:08.544182Z,2024-12-23T12:30:08.543959Z,51241,1,200000051241,13,микрорайон,мкр.,"Теректы, ул. Талсуат"
3165,2024-12-23T12:27:53.984211Z,2024-12-23T12:27:53.984040Z,51194,1,200000051194,13,микрорайон,мкр.,"Теректы, ул. Тастобе"
3162,2024-12-23T12:16:16.710479Z,2024-12-23T12:16:16.710255Z,51191,1,200000051191,13,микрорайон,мкр.,"Теректы, ул. Тауелсиздик"
3203,2024-12-23T12:29:20.135013Z,2024-12-23T12:29:20.134831Z,51232,1,200000051232,13,микрорайон,мкр.,"Теректы, ул. Таусогар"
3194,2024-12-23T12:29:01.892378Z,2024-12-23T12:29:01.892148Z,51223,1,200000051223,13,микрорайон,мкр.,"Теректы, ул. Тобылгысай"
3169,2024-12-23T12:27:57.815344Z,2024-12-23T12:27:57.814980Z,51198,1,200000051198,13,микрорайон,мкр.,"Теректы, ул. Туздыкол"
3171,2024-12-23T12:27:58.260564Z,2024-12-23T12:27:58.260292Z,51200,1,200000051200,13,микрорайон,мкр.,"Теректы, ул. Туйемойнак"
3193,2024-12-23T12:29:01.708131Z,2024-12-23T12:29:01.707918Z,51222,1,200000051222,13,микрорайон,мкр.,"Теректы, ул. Унгиртас"
3143,2024-12-20T11:04:37.792105Z,2024-12-20T11:04:37.791848Z,51172,1,200000051172,13,микрорайон,мкр.,"Теректы, ул. Устирт"
3210,2024-12-23T12:30:03.274039Z,2024-12-23T12:30:03.273844Z,51239,1,200000051239,13,микрорайон,мкр.,"Теректы, ул. Ушкиян"
3187,2024-12-23T12:28:50.370084Z,2024-12-23T12:28:50.369718Z,51216,1,200000051216,13,микрорайон,мкр.,"Теректы, ул. Шарайна"
3161,2024-12-23T12:16:15.690379Z,2024-12-23T12:16:15.688540Z,51190,1,200000051190,13,микрорайон,мкр.,"Теректы, ул. Шаттык"
3211,2024-12-23T12:30:04.048106Z,2024-12-23T12:30:04.047735Z,51240,1,200000051240,13,микрорайон,мкр.,"Теректы, ул. Шектибай"
3192,2024-12-23T12:28:57.125274Z,2024-12-23T12:28:57.124978Z,51221,1,200000051221,13,микрорайон,мкр.,"Теректы, ул. Шенгелди"
3168,2024-12-23T12:27:55.832278Z,2024-12-23T12:27:55.832100Z,51197,1,200000051197,13,микрорайон,мкр.,"Теректы, ул. Шымкорган"
957,2020-09-03T10:26:20.409Z,2020-09-03T10:26:20.409Z,272,1,200000000272,6,улица,ул.,Тимирязева
3493,2025-01-31T10:33:34.687860Z,2025-01-31T10:33:34.686613Z,51522,1,200000051522,6,улица,ул.,Тихая
948,2020-09-03T10:26:20.409Z,2020-09-03T10:26:20.409Z,263,1,200000000263,6,улица,ул.,Тлендиева
461,2020-09-03T10:26:20.338Z,2020-09-03T10:26:20.338Z,36,1,200000000036,6,улица,ул.,Токтабаева
441,2020-09-03T10:26:20.338Z,2020-09-03T10:26:20.338Z,14,1,200000000014,6,улица,ул.,Толе би
683,2020-09-03T10:26:20.374Z,2020-09-03T10:26:20.374Z,928,1,200000000928,6,улица,ул.,Толстого
3480,2025-01-31T10:21:20.578877Z,2025-01-31T10:21:20.578645Z,51509,1,200000051509,6,улица,ул.,Тоныкок Жырау
495,2020-09-03T10:26:20.338Z,2020-09-03T10:26:20.338Z,82,1,200000000082,6,улица,ул.,Торайгырова
1991,2023-02-28T02:59:40.533961Z,2023-02-28T02:59:40.533709Z,50024,1,200000050024,6,улица,ул.,Торекулова
1038,2020-09-03T10:26:20.446Z,2020-09-03T10:26:20.446Z,300,1,200000000300,6,улица,ул.,Тулебаева
3324,2024-12-30T17:34:20.914720Z,2024-12-30T17:34:20.913150Z,51353,1,200000051353,13,микрорайон,мкр.,Тулпар
3326,2024-12-30T17:35:51.727693Z,2024-12-30T17:35:51.727352Z,51355,1,200000051355,13,микрорайон,мкр.,"Тулпар, ул. Жансугурова"
3328,2024-12-30T17:36:56.761428Z,2024-12-30T17:36:56.761207Z,51357,1,200000051357,13,микрорайон,мкр.,"Тулпар, ул. Зелёная"
942,2020-09-03T10:26:20.409Z,2020-09-03T10:26:20.409Z,256,1,200000000256,6,улица,ул.,Тургут Озала
946,2020-09-03T10:26:20.409Z,2020-09-03T10:26:20.409Z,260,1,200000000260,6,улица,ул.,Туркебаева
774,2020-09-03T10:26:20.409Z,2022-11-15T12:48:33.048665Z,696,1,200000000696,6,улица,ул.,Тынышбаева
1818,2022-11-15T12:50:54.438209Z,2025-02-07T06:57:33.648754Z,10426,1,200000010426,6,улица,ул.,Тянь-Шаньская
2029,2023-06-15T11:18:58.559519Z,2024-09-21T08:07:04.616240Z,50062,1,200000050062,6,улица,ул.,ул.Е.Рахмадиева
2357,2024-09-30T08:12:07.441482Z,2024-09-30T08:12:07.439350Z,50386,1,200000050386,13,микрорайон,мкр.,"Улжан-1, улица Акжазык"
2358,2024-09-30T08:12:09.350275Z,2024-09-30T08:12:09.350024Z,50387,1,200000050387,13,микрорайон,мкр.,"Улжан-1, улица Акжар"
2355,2024-09-30T08:12:06.364073Z,2024-09-30T08:12:06.363831Z,50384,1,200000050384,13,микрорайон,мкр.,"Улжан-1, улица Байтас"
2362,2024-09-30T08:29:40.673597Z,2024-09-30T08:29:40.673277Z,50391,1,200000050391,13,микрорайон,мкр.,"Улжан-1, улица Балкудык"
2365,2024-09-30T08:37:49.659350Z,2024-09-30T08:37:49.659146Z,50394,1,200000050394,13,микрорайон,мкр.,"Улжан-1, улица Балтабай"
2347,2024-09-30T07:21:33.284962Z,2024-09-30T07:21:33.283922Z,50376,1,200000050376,13,микрорайон,мкр.,"Улжан-1, улица Бескайнар"
2351,2024-09-30T07:23:58.916251Z,2024-09-30T07:23:58.915868Z,50380,1,200000050380,13,микрорайон,мкр.,"Улжан-1, улица Бескарагай"
2359,2024-09-30T08:12:10.480832Z,2024-09-30T08:12:10.480412Z,50388,1,200000050388,13,микрорайон,мкр.,"Улжан-1, улица Бозарал"
2352,2024-09-30T07:24:00.130907Z,2024-09-30T07:24:00.130697Z,50381,1,200000050381,13,микрорайон,мкр.,"Улжан-1, улица Егинсу"
2353,2024-09-30T07:24:01.564404Z,2024-09-30T07:24:01.564118Z,50382,1,200000050382,13,микрорайон,мкр.,"Улжан-1, улица Екпынды"
2380,2024-09-30T11:47:30.894837Z,2024-09-30T11:47:30.894598Z,50409,1,200000050409,13,микрорайон,мкр.,"Улжан-1, улица Жанажол"
2350,2024-09-30T07:23:57.003163Z,2024-09-30T07:23:57.002702Z,50379,1,200000050379,13,микрорайон,мкр.,"Улжан-1, улица Жаналык"
2349,2024-09-30T07:21:34.547145Z,2024-09-30T07:21:34.546851Z,50378,1,200000050378,13,микрорайон,мкр.,"Улжан-1, улица Кайнар"
2346,2024-09-30T07:21:31.109445Z,2024-09-30T07:21:31.108784Z,50375,1,200000050375,13,микрорайон,мкр.,"Улжан-1, улица Карабулак"
2363,2024-09-30T08:33:05.898348Z,2024-09-30T08:33:05.898074Z,50392,1,200000050392,13,микрорайон,мкр.,"Улжан-1, улица Карасаз"
2348,2024-09-30T07:21:34.013707Z,2024-09-30T07:21:34.013061Z,50377,1,200000050377,13,микрорайон,мкр.,"Улжан-1, улица Кокпекты"
2361,2024-09-30T08:28:46.200422Z,2024-09-30T08:28:46.200137Z,50390,1,200000050390,13,микрорайон,мкр.,"Улжан-1, улица Куренкулак"
2356,2024-09-30T08:12:06.571883Z,2024-09-30T08:12:06.570928Z,50385,1,200000050385,13,микрорайон,мкр.,"Улжан-1, улица Сарбастау"
2354,2024-09-30T07:24:02.164933Z,2024-09-30T07:24:02.164146Z,50383,1,200000050383,13,микрорайон,мкр.,"Улжан-1, улица Сулутобе"
2364,2024-09-30T08:34:50.812453Z,2024-09-30T08:34:50.812151Z,50393,1,200000050393,13,микрорайон,мкр.,"Улжан-1, улица Такежанова"
2360,2024-09-30T08:12:12.691653Z,2024-09-30T08:12:12.690839Z,50389,1,200000050389,13,микрорайон,мкр.,"Улжан-1, улица Улан"
932,2020-09-03T10:26:20.409Z,2020-09-03T10:26:20.409Z,245,1,200000000245,6,улица,ул.,Умбетбаева
1431,2020-09-03T10:26:20.482Z,2020-09-03T10:26:20.482Z,1190,1,200000001190,6,улица,ул.,Умурзакова
2000,2023-03-30T11:31:37.969805Z,2023-03-30T11:31:37.969305Z,50033,1,200000050033,6,улица,ул.,Университетская
1297,2020-09-03T10:26:20.482Z,2020-09-03T10:26:20.482Z,1035,1,200000001035,6,улица,ул.,Утеген Батыра
1176,2020-09-03T10:26:20.446Z,2020-09-03T10:26:20.446Z,521,1,200000000521,6,улица,ул.,Утепова
3481,2025-01-31T10:21:23.041979Z,2025-01-31T10:21:23.039488Z,51510,1,200000051510,6,улица,ул.,Ушконыр
1819,2022-11-15T12:50:54.486103Z,2022-11-15T12:50:54.485687Z,9446,1,200000009446,6,улица,ул.,Федосеева
775,2020-09-03T10:26:20.409Z,2020-09-03T10:26:20.409Z,697,1,200000000697,6,улица,ул.,Физули
3608,2025-03-20T05:22:22.049681Z,2025-03-20T05:22:22.049480Z,51637,1,200000051637,6,улица,ул.,Флотская
3497,2025-01-31T10:33:36.572911Z,2025-01-31T10:33:36.572647Z,51526,1,200000051526,6,улица,ул.,Хабаровская
2497,2024-10-23T12:33:40.065382Z,2024-10-23T12:33:40.065025Z,50530,1,200000050530,6,улица,ул.,Халиуллина
2026,2023-06-09T04:02:59.889155Z,2023-06-09T04:02:59.888587Z,50059,1,200000050059,6,улица,ул.,Ханов Керея и Жанибека
2747,2024-11-27T09:10:10.464135Z,2024-11-27T09:10:10.463792Z,50776,1,200000050776,13,микрорайон,мкр.,Хан-Тенгри
2781,2024-11-27T10:50:53.759666Z,2024-11-27T10:50:53.759491Z,50810,1,200000050810,13,микрорайон,мкр.,"Хан Тенгри, ул. Набережная"
2748,2024-11-27T09:10:10.709219Z,2024-11-27T09:10:10.708577Z,50777,1,200000050777,13,микрорайон,мкр.,"Хан Тенгри, ул. Свежесть"
2746,2024-11-27T09:10:10.333643Z,2024-11-27T09:10:10.333435Z,50775,1,200000050775,13,микрорайон,мкр.,"Хан Тенгри, ул. Энергетик-2"
1178,2020-09-03T10:26:20.446Z,2020-09-03T10:26:20.446Z,523,1,200000000523,6,улица,ул.,Ходжанова
1820,2022-11-15T12:50:54.532252Z,2022-11-15T12:50:54.531707Z,9526,1,200000009526,6,улица,ул.,Хусаинова
776,2020-09-03T10:26:20.409Z,2020-09-03T10:26:20.409Z,698,1,200000000698,6,улица,ул.,Цветочная
3611,2025-03-20T05:22:51.139118Z,2025-03-20T05:22:51.138904Z,51640,1,200000051640,6,улица,ул.,Цимлянская
955,2020-09-03T10:26:20.409Z,2020-09-03T10:26:20.409Z,270,1,200000000270,6,улица,ул.,Чайковского
777,2020-09-03T10:26:20.409Z,2020-09-03T10:26:20.409Z,699,1,200000000699,6,улица,ул.,Чернышевского
778,2020-09-03T10:26:20.409Z,2020-09-03T10:26:20.409Z,700,1,200000000700,6,улица,ул.,Чехова
3504,2025-01-31T10:35:09.625231Z,2025-01-31T10:35:09.625049Z,51533,1,200000051533,6,улица,ул.,Читинская
177,2020-09-03T10:26:20.302Z,2020-09-03T10:26:20.302Z,5961,1,200000005961,6,улица,ул.,Чуланова
442,2020-09-03T10:26:20.338Z,2020-09-03T10:26:20.338Z,15,1,200000000015,6,улица,ул.,Шагабутдинова
3928,2025-03-31T09:59:51.000738Z,2025-03-31T09:59:51.000385Z,51958,1,200000051958,6,улица,ул.,Шаймерденова
1058,2020-09-03T10:26:20.446Z,2020-09-03T10:26:20.446Z,322,1,200000000322,6,улица,ул.,Шалом-Алейхем
3879,2025-03-28T08:14:05.365479Z,2025-03-28T08:14:05.365311Z,51909,1,200000051909,13,микрорайон,мкр.,"Шанырак-1, ул. 20 Июня"
3882,2025-03-28T08:14:10.742855Z,2025-03-28T08:14:10.742675Z,51912,1,200000051912,13,микрорайон,мкр.,"Шанырак-1, ул. Акжол"
3870,2025-03-28T08:10:05.087309Z,2025-03-28T08:10:05.087080Z,51900,1,200000051900,13,микрорайон,мкр.,"Шанырак-1, ул. Актума"
3868,2025-03-28T08:10:02.842119Z,2025-03-28T08:10:02.841893Z,51898,1,200000051898,13,микрорайон,мкр.,"Шанырак-1, ул. Акын Сара"
3859,2025-03-28T08:02:30.100981Z,2025-03-28T08:02:30.100725Z,51889,1,200000051889,13,микрорайон,мкр.,"Шанырак-1, ул. Алпамыс Батыра"
3872,2025-03-28T08:10:59.449372Z,2025-03-28T08:10:59.449193Z,51902,1,200000051902,13,микрорайон,мкр.,"Шанырак-1, ул. Асан Кайгы"
3861,2025-03-28T08:02:30.986090Z,2025-03-28T08:02:30.985701Z,51891,1,200000051891,13,микрорайон,мкр.,"Шанырак-1, ул. Аулиеагаш"
3883,2025-03-28T08:14:32.659875Z,2025-03-28T08:14:32.659292Z,51913,1,200000051913,13,микрорайон,мкр.,"Шанырак-1, ул. Ашекеева"
3876,2025-03-28T08:12:50.657321Z,2025-03-28T08:12:50.657106Z,51906,1,200000051906,13,микрорайон,мкр.,"Шанырак-1, ул. Бабыра"
3874,2025-03-28T08:12:19.872998Z,2025-03-28T08:12:19.872809Z,51904,1,200000051904,13,микрорайон,мкр.,"Шанырак-1, ул. Байторы"
3887,2025-03-28T08:16:31.628695Z,2025-03-28T08:16:31.628504Z,51917,1,200000051917,13,микрорайон,мкр.,"Шанырак-1, ул. Береке"
3889,2025-03-28T08:18:12.965931Z,2025-03-28T08:18:12.965750Z,51919,1,200000051919,13,микрорайон,мкр.,"Шанырак-1, ул. Бирлик"
3867,2025-03-28T08:10:02.574846Z,2025-03-28T08:10:02.574648Z,51897,1,200000051897,13,микрорайон,мкр.,"Шанырак-1, ул. Бостандык"
3857,2025-03-28T08:02:25.574394Z,2025-03-28T08:02:25.574239Z,51887,1,200000051887,13,микрорайон,мкр.,"Шанырак-1, ул. Егемен"
3862,2025-03-28T08:02:52.924655Z,2025-03-28T08:02:52.924343Z,51892,1,200000051892,13,микрорайон,мкр.,"Шанырак-1, ул. Ертаргын"
3869,2025-03-28T08:10:03.509178Z,2025-03-28T08:10:03.508973Z,51899,1,200000051899,13,микрорайон,мкр.,"Шанырак-1, ул. Есентай"
3866,2025-03-28T08:09:39.698519Z,2025-03-28T08:09:39.698344Z,51896,1,200000051896,13,микрорайон,мкр.,"Шанырак-1, ул. Жанаталап"
3886,2025-03-28T08:15:37.096513Z,2025-03-28T08:15:37.096319Z,51916,1,200000051916,13,микрорайон,мкр.,"Шанырак-1, ул. Жас Казах"
3865,2025-03-28T08:09:36.073255Z,2025-03-28T08:09:36.073081Z,51895,1,200000051895,13,микрорайон,мкр.,"Шанырак-1, ул. Жаскайрат"
3880,2025-03-28T08:14:07.770307Z,2025-03-28T08:14:07.770079Z,51910,1,200000051910,13,микрорайон,мкр.,"Шанырак-1, ул. Кайнар"
3860,2025-03-28T08:02:30.853565Z,2025-03-28T08:02:30.853343Z,51890,1,200000051890,13,микрорайон,мкр.,"Шанырак-1, ул. Каратау"
3884,2025-03-28T08:15:05.972590Z,2025-03-28T08:15:05.972369Z,51914,1,200000051914,13,микрорайон,мкр.,"Шанырак-1, ул. Кобыланды Батыра"
3864,2025-03-28T08:09:32.430113Z,2025-03-28T08:09:32.429841Z,51894,1,200000051894,13,микрорайон,мкр.,"Шанырак-1, ул. Когалы"
3863,2025-03-28T08:09:32.222781Z,2025-03-28T08:09:32.222486Z,51893,1,200000051893,13,микрорайон,мкр.,"Шанырак-1, ул. Коркыт"
3888,2025-03-28T08:17:46.114045Z,2025-03-28T08:17:46.113873Z,51918,1,200000051918,13,микрорайон,мкр.,"Шанырак-1, ул. Косагаш"
3881,2025-03-28T08:14:10.555570Z,2025-03-28T08:14:10.555373Z,51911,1,200000051911,13,микрорайон,мкр.,"Шанырак-1, ул. Майры Уаликызы"
3877,2025-03-28T08:13:16.392223Z,2025-03-28T08:13:16.391978Z,51907,1,200000051907,13,микрорайон,мкр.,"Шанырак-1, ул. Мариям Жагоркызы"
3482,2025-01-31T10:26:06.213982Z,2025-01-31T10:26:06.213726Z,51511,1,200000051511,13,микрорайон,мкр.,"Шанырак-1, ул. Маркаколь"
3856,2025-03-28T08:02:25.048108Z,2025-03-28T08:02:25.047925Z,51886,1,200000051886,13,микрорайон,мкр.,"Шанырак-1, ул. Махамбета Утемисова"
3871,2025-03-28T08:10:30.525407Z,2025-03-28T08:10:30.525166Z,51901,1,200000051901,13,микрорайон,мкр.,"Шанырак-1, ул. Мурагер"
3858,2025-03-28T08:02:27.832395Z,2025-03-28T08:02:27.832173Z,51888,1,200000051888,13,микрорайон,мкр.,"Шанырак-1, ул. Наурыз"
3875,2025-03-28T08:12:22.087069Z,2025-03-28T08:12:22.086852Z,51905,1,200000051905,13,микрорайон,мкр.,"Шанырак-1, ул. Окжетпес"
3873,2025-03-28T08:10:59.902275Z,2025-03-28T08:10:59.902104Z,51903,1,200000051903,13,микрорайон,мкр.,"Шанырак-1, ул. Орбулак"
3855,2025-03-28T08:02:24.748172Z,2025-03-28T08:02:24.747899Z,51885,1,200000051885,13,микрорайон,мкр.,"Шанырак-1, ул. Улпан"
3878,2025-03-28T08:13:39.982867Z,2025-03-28T08:13:39.982658Z,51908,1,200000051908,13,микрорайон,мкр.,"Шанырак-1, ул. Шиликты сай"
3460,2025-01-31T10:05:44.493003Z,2025-01-31T10:05:44.492810Z,51489,1,200000051489,13,микрорайон,мкр.,"Шанырак-2, ул.А. Закарина"
3472,2025-01-31T10:19:17.093242Z,2025-01-31T10:19:17.092503Z,51501,1,200000051501,13,микрорайон,мкр.,"Шанырак-2, ул.Алтын сака"
3473,2025-01-31T10:19:17.365003Z,2025-01-31T10:19:17.364261Z,51502,1,200000051502,13,микрорайон,мкр.,"Шанырак-2, ул.Аристова"
3477,2025-01-31T10:20:13.681732Z,2025-01-31T10:20:13.681556Z,51506,1,200000051506,13,микрорайон,мкр.,"Шанырак-2, ул. Ахмеди Искакова"
3474,2025-01-31T10:19:23.738247Z,2025-01-31T10:19:23.737981Z,51503,1,200000051503,13,микрорайон,мкр.,"Шанырак-2, ул.Балдырган"
3469,2025-01-31T10:17:55.424424Z,2025-01-31T10:17:55.424188Z,51498,1,200000051498,13,микрорайон,мкр.,"Шанырак-2, ул.Бартогай"
3470,2025-01-31T10:17:56.717258Z,2025-01-31T10:17:56.715925Z,51499,1,200000051499,13,микрорайон,мкр.,"Шанырак-2, ул.Гулистан"
3457,2025-01-31T10:02:38.689369Z,2025-01-31T10:02:38.689163Z,51486,1,200000051486,13,микрорайон,мкр.,"Шанырак-2, ул.Жалантос Бахадур"
3455,2025-01-31T09:54:46.161565Z,2025-01-31T09:54:46.161344Z,51484,1,200000051484,13,микрорайон,мкр.,"Шанырак-2, ул.Жанкожа батыра"
3476,2025-01-31T10:20:10.087031Z,2025-01-31T10:20:10.086788Z,51505,1,200000051505,13,микрорайон,мкр.,"Шанырак-2, ул.Жаркынбаева"
3471,2025-01-31T10:17:58.489569Z,2025-01-31T10:17:58.489060Z,51500,1,200000051500,13,микрорайон,мкр.,"Шанырак-2, ул.Жыласай"
3885,2025-03-28T08:15:36.448909Z,2025-03-28T08:15:36.448621Z,51915,1,200000051915,13,микрорайон,мкр.,"Шанырак-2, ул. Жылысай"
3468,2025-01-31T10:16:21.980960Z,2025-01-31T10:16:21.980676Z,51497,1,200000051497,13,микрорайон,мкр.,"Шанырак-2, ул.Кайынсай"
3467,2025-01-31T10:15:08.010562Z,2025-01-31T10:15:08.010273Z,51496,1,200000051496,13,микрорайон,мкр.,"Шанырак-2, ул.Каратая Турысова"
3484,2025-01-31T10:26:59.055104Z,2025-01-31T10:26:59.054874Z,51513,1,200000051513,13,микрорайон,мкр.,"Шанырак-2, ул. Каркара"
3464,2025-01-31T10:13:33.714469Z,2025-01-31T10:13:33.714154Z,51493,1,200000051493,13,микрорайон,мкр.,"Шанырак-2, ул.Кулантобе"
3465,2025-01-31T10:13:34.966634Z,2025-01-31T10:13:34.966404Z,51494,1,200000051494,13,микрорайон,мкр.,"Шанырак-2, ул.Култегин"
3466,2025-01-31T10:14:01.737015Z,2025-01-31T10:14:01.736517Z,51495,1,200000051495,13,микрорайон,мкр.,"Шанырак-2, ул.Кумбел"
3463,2025-01-31T10:12:12.455987Z,2025-01-31T10:12:12.455782Z,51492,1,200000051492,13,микрорайон,мкр.,"Шанырак-2, ул.Малова"
3475,2025-01-31T10:20:08.171485Z,2025-01-31T10:20:08.171095Z,51504,1,200000051504,13,микрорайон,мкр.,"Шанырак-2, ул.Оркен"
3461,2025-01-31T10:06:59.242818Z,2025-01-31T10:06:59.242616Z,51490,1,200000051490,13,микрорайон,мкр.,"Шанырак-2, ул.Сабыра Рахимова"
3462,2025-01-31T10:07:04.248824Z,2025-01-31T10:07:04.248507Z,51491,1,200000051491,13,микрорайон,мкр.,"Шанырак-2, ул.Сарыжаз"
3459,2025-01-31T10:05:40.990447Z,2025-01-31T10:05:40.990253Z,51488,1,200000051488,13,микрорайон,мкр.,"Шанырак-2, ул.Сырым батыра"
3458,2025-01-31T10:02:39.124271Z,2025-01-31T10:02:39.124007Z,51487,1,200000051487,13,микрорайон,мкр.,"Шанырак-2, ул.Тасжарган"
3456,2025-01-31T09:59:34.174544Z,2025-01-31T09:59:34.174327Z,51485,1,200000051485,13,микрорайон,мкр.,"Шанырак-2, ул.Тойшыбек батыра"
443,2020-09-03T10:26:20.338Z,2020-09-03T10:26:20.338Z,16,1,200000000016,6,улица,ул.,Шарипова Ади
2106,2024-03-29T16:48:25.950844Z,2024-03-29T16:48:25.950561Z,50139,1,200000050139,6,улица,ул.,Шарипова Касыма
3607,2025-03-20T05:21:26.031955Z,2025-03-20T05:21:26.031701Z,51636,1,200000051636,6,улица,ул.,Шаумяна
907,2020-09-03T10:26:20.409Z,2020-09-03T10:26:20.409Z,219,1,200000000219,6,улица,ул.,Шафика Чокина
1057,2020-09-03T10:26:20.446Z,2022-11-15T12:48:33.093027Z,321,1,200000000321,6,улица,ул.,Шашкина
914,2020-09-03T10:26:20.409Z,2020-09-03T10:26:20.409Z,227,1,200000000227,6,улица,ул.,Шевченко
179,2020-09-03T10:26:20.302Z,2020-09-03T10:26:20.302Z,6061,1,200000006061,6,улица,ул.,Шмелева
779,2020-09-03T10:26:20.409Z,2020-09-03T10:26:20.409Z,701,1,200000000701,6,улица,ул.,Шолохова
396,2020-09-03T10:26:20.338Z,2020-09-03T10:26:20.338Z,7983,1,200000007983,13,микрорайон,мкр.,Шугыла
3351,2024-12-30T18:07:07.077861Z,2024-12-30T18:07:07.077611Z,51380,1,200000051380,13,микрорайон,мкр.,"Шугыла, ул. Байконыр"
3355,2024-12-30T18:10:46.478991Z,2024-12-30T18:10:46.478628Z,51384,1,200000051384,13,микрорайон,мкр.,"Шугыла, ул. Байтели батыра"
3360,2024-12-30T18:33:50.791528Z,2024-12-30T18:33:50.791271Z,51389,1,200000051389,13,микрорайон,мкр.,"Шугыла, ул. Береке"
2004,2023-04-10T08:58:48.092920Z,2024-11-08T05:17:12.562430Z,50037,1,200000050037,13,микрорайон,мкр.,"Шугыла,ул.Дала"
3354,2024-12-30T18:10:44.485707Z,2024-12-30T18:10:44.485528Z,51383,1,200000051383,13,микрорайон,мкр.,"Шугыла, ул. Дихан"
3352,2024-12-30T18:10:39.160290Z,2024-12-30T18:10:39.160060Z,51381,1,200000051381,13,микрорайон,мкр.,"Шугыла, ул. Енбек"
3353,2024-12-30T18:10:43.477688Z,2024-12-30T18:10:43.477526Z,51382,1,200000051382,13,микрорайон,мкр.,"Шугыла, ул. Енбек 1-я линия"
3356,2024-12-30T18:10:49.738602Z,2024-12-30T18:10:49.738384Z,51385,1,200000051385,13,микрорайон,мкр.,"Шугыла, ул. Жалын"
2003,2023-03-31T11:15:56.783072Z,2024-11-08T03:24:38.336915Z,50036,1,200000050036,13,микрорайон,мкр.,"Шугыла, ул.Жуалы"
3349,2024-12-30T18:04:56.424759Z,2024-12-30T18:04:56.424476Z,51378,1,200000051378,13,микрорайон,мкр.,"Шугыла, ул. Кенжетаева"
3361,2024-12-30T18:33:52.448849Z,2024-12-30T18:33:52.448576Z,51390,1,200000051390,13,микрорайон,мкр.,"Шугыла, ул. Коктерек"
91,2020-09-03T10:26:20.302Z,2020-09-03T10:26:20.302Z,5641,1,200000005641,6,улица,ул.,Щепеткова
458,2020-09-03T10:26:20.338Z,2020-09-03T10:26:20.338Z,32,1,200000000032,6,улица,ул.,Щепкина
780,2020-09-03T10:26:20.409Z,2020-09-03T10:26:20.409Z,702,1,200000000702,6,улица,ул.,Щербакова
1948,2022-11-15T12:51:32.684769Z,2022-11-15T12:51:32.684320Z,10226,1,200000010226,6,улица,ул.,Ырысты
3499,2025-01-31T10:33:40.763826Z,2025-01-31T10:33:40.763610Z,51528,1,200000051528,6,улица,ул.,Якубова
3496,2025-01-31T10:33:36.467614Z,2025-01-31T10:33:36.467464Z,51525,1,200000051525,6,улица,ул.,Янки Купалы
1045,2020-09-03T10:26:20.446Z,2020-09-03T10:26:20.446Z,307,1,200000000307,6,улица,ул.,Янушкевича
3612,2025-03-20T05:23:14.775328Z,2025-03-20T05:23:14.775112Z,51641,1,200000051641,6,улица,ул.,Ярославская
